HIERARCHY
ROOT pelvis
{
  OFFSET 0.000000000 0.000000000 0.000000000
  CHANNELS 6 Xposition Yposition Zposition Zrotation Yrotation Xrotation
  JOINT Spine
  {
    OFFSET 0.000000000 7.098910000 -4.732610000
    CHANNELS 3 Zrotation Yrotation Xrotation
    JOINT Spine1
    {
      OFFSET 0.000000000 9.321421820 -1.643618918
      CHANNELS 3 Zrotation Yrotation Xrotation
      JOINT Spine2
      {
        OFFSET 0.000000000 9.429201273 -0.824953336
        CHANNELS 3 Zrotation Yrotation Xrotation
        JOINT Spine3
        {
          OFFSET 0.000000000 9.465219566 -0.000009457
          CHANNELS 3 Zrotation Yrotation Xrotation
          JOINT Neck
          {
            OFFSET 0.000000000 24.846202406 3.549435011
            CHANNELS 3 Zrotation Yrotation Xrotation
            JOINT Head
            {
              OFFSET 0.000000000 12.816978830 2.259967009
              CHANNELS 3 Zrotation Yrotation Xrotation
              End Site
              {
                OFFSET 0.0 5.0 0.0
              }
            }
          }
          JOINT RightShoulder
          {
            OFFSET -3.199490000 17.277204535 5.332462492
            CHANNELS 3 Zrotation Yrotation Xrotation
            JOINT RightArm
            {
              OFFSET -15.890800000 -0.000005505 0.000000000
              CHANNELS 3 Zrotation Yrotation Xrotation
              JOINT RightForeArm
              {
                OFFSET -29.543600000 -0.000010234 0.000000000
                CHANNELS 3 Zrotation Yrotation Xrotation
                JOINT RightHand
                {
                  OFFSET -23.265200000 -0.000008059 0.000000000
                  CHANNELS 3 Zrotation Yrotation Xrotation
                  JOINT RightHandEnd
                  {
                    OFFSET -6.961150000 -0.000002411 0.000000000
                    CHANNELS 3 Zrotation Yrotation Xrotation
                    End Site
                    {
                      OFFSET 0.0 5.0 0.0
                    }
                  }
                  JOINT RightHandThumb1
                  {
                    OFFSET -2.784459357 -1.856306242 4.640771642
                    CHANNELS 3 Zrotation Yrotation Xrotation
                    End Site
                    {
                      OFFSET 0.0 5.0 0.0
                    }
                  }
                }
              }
            }
          }
          JOINT LeftShoulder
          {
            OFFSET 3.199490000 17.277204535 5.332462492
            CHANNELS 3 Zrotation Yrotation Xrotation
            JOINT LeftArm
            {
              OFFSET 15.890800000 0.000000000 0.000000000
              CHANNELS 3 Zrotation Yrotation Xrotation
              JOINT LeftForeArm
              {
                OFFSET 29.543600000 0.000000000 0.000000000
                CHANNELS 3 Zrotation Yrotation Xrotation
                JOINT LeftHand
                {
                  OFFSET 23.265200000 0.000000000 0.000000000
                  CHANNELS 3 Zrotation Yrotation Xrotation
                  JOINT LeftHandEnd
                  {
                    OFFSET 6.961150000 0.000000000 0.000000000
                    CHANNELS 3 Zrotation Yrotation Xrotation
                    End Site
                    {
                      OFFSET 0.0 5.0 0.0
                    }
                  }
                  JOINT LeftHandThumb1
                  {
                    OFFSET 2.784460000 -1.856305278 4.640771642
                    CHANNELS 3 Zrotation Yrotation Xrotation
                    End Site
                    {
                      OFFSET 0.0 5.0 0.0
                    }
                  }
                }
              }
            }
          }
        }
      }
    }
  }
  JOINT RightUpLeg
  {
    OFFSET -9.491820000 -2.772890000 0.000000000
    CHANNELS 3 Zrotation Yrotation Xrotation
    JOINT RightLeg
    {
      OFFSET 0.000000000 -41.211800000 0.000000000
      CHANNELS 3 Zrotation Yrotation Xrotation
      JOINT RightFoot
      {
        OFFSET -0.000000000 -45.609100000 0.000000000
        CHANNELS 3 Zrotation Yrotation Xrotation
        JOINT RightToeBase
        {
          OFFSET -0.000000000 -5.847492523 16.065826618
          CHANNELS 3 Zrotation Yrotation Xrotation
          End Site
          {
            OFFSET 0.0 5.0 0.0
          }
        }
      }
    }
  }
  JOINT LeftUpLeg
  {
    OFFSET 9.491820000 -2.772890000 0.000000000
    CHANNELS 3 Zrotation Yrotation Xrotation
    JOINT LeftLeg
    {
      OFFSET 0.000000000 -41.211800000 0.000000000
      CHANNELS 3 Zrotation Yrotation Xrotation
      JOINT LeftFoot
      {
        OFFSET -0.000000000 -45.609100000 0.000000000
        CHANNELS 3 Zrotation Yrotation Xrotation
        JOINT LeftToeBase
        {
          OFFSET -0.000000000 -5.847492523 16.065826618
          CHANNELS 3 Zrotation Yrotation Xrotation
          End Site
          {
            OFFSET 0.0 5.0 0.0
          }
        }
      }
    }
  }
}
MOTION
Frames: 81
Frame Time: 0.050000000000
-0.027967735 88.554829172 0.199032612 -1.442060616 -3.901406649 -1.131000282 -0.423004028 -0.101894542 3.982441309 0.295822142 -0.083986293 2.260149263 -0.442898636 2.184849017 4.406938304 -0.535343710 0.268849312 0.845205265 6.501512084 -9.799380982 5.308735034 1.166597959 -21.867373530 -12.701473274 -12.414747032 8.187793935 -4.879647870 38.565155802 40.262850194 -41.086788330 179.908935723 64.425718541 179.631944567 -11.500128359 5.042962398 -5.261399580 -0.001235644 0.002117733 -0.003165284 -5.097186160 0.853950218 18.986690079 13.541098133 6.462899145 2.525994229 -84.202433490 -68.035473555 22.877002288 179.785736458 -46.073645937 -179.651877127 8.526902868 10.140036636 -7.118880410 0.003584041 -0.000965730 0.000927060 -5.001623349 -0.860870220 -19.445668133 -16.036489570 -2.438097818 -24.430246987 -0.488724963 0.217435748 37.112218108 17.913784038 6.331737846 -8.156769748 0.001811264 -0.077331952 2.370753158 14.097030400 -3.606652177 -5.663640278 -0.000855567 0.049837025 37.946888703 -13.893463569 -4.628478435 -30.528048890 -0.005614075 0.170524069 4.056295406
-0.007192959 88.554796525 0.142197495 -1.468741432 -3.816921499 -1.087061780 -0.428789850 -0.098662927 3.959699196 0.290783356 -0.081394230 2.255761956 -0.435713756 2.212832258 4.412899716 -0.537611156 0.273886001 0.846968568 6.453575736 -9.745350013 5.312466341 1.143732442 -21.804904021 -12.723922826 -12.423071470 8.187759824 -4.886105006 38.746337868 40.218431639 -41.179499939 179.855062011 64.330781372 179.593874153 -11.488615998 5.061403953 -5.232925871 -0.001274000 0.002188370 -0.003067100 -5.100477076 0.854390287 18.983240740 13.621096907 6.431526195 2.469467268 -84.550796613 -67.950742901 23.001224891 179.806941425 -46.013876698 -179.667824973 8.408921638 10.042939181 -7.083686773 0.003596792 -0.000916574 0.000756294 -5.001317003 -0.861158071 -19.451859198 -16.082253084 -2.408663998 -24.445504726 -0.409288442 0.164930609 37.055931900 17.917727578 6.208817084 -8.134488508 0.001811264 -0.077331952 2.370753158 14.113048720 -3.577195861 -5.826857257 0.043399662 0.017193882 38.046604860 -13.885099499 -4.706113425 -30.506114321 -0.005614075 0.170524069 4.056295406
0.014043243 88.553978137 0.082794818 -1.493934041 -3.736579768 -1.045638127 -0.434200657 -0.094794546 3.940683876 0.287026321 -0.078534212 2.253216630 -0.428149131 2.243169279 4.418994768 -0.539492915 0.279408411 0.848079975 6.405826233 -9.692502261 5.310791748 1.122714523 -21.740587854 -12.746336112 -12.432305244 8.188013340 -4.893701454 38.929287547 40.175694267 -41.262699782 179.811162493 64.234647200 179.564340191 -11.473417963 5.076748836 -5.201915623 -0.001310704 0.002266216 -0.002959966 -5.104143274 0.854828280 18.978516652 13.698576048 6.397412503 2.413131187 -84.881394728 -67.871683367 23.114754152 179.828083272 -45.959091191 -179.685559200 8.298451333 9.948791281 -7.052807118 0.003618904 -0.000858732 0.000599217 -5.001588547 -0.861486083 -19.456815296 -16.127582908 -2.381750978 -24.462962533 -0.332269701 0.114369636 37.001312900 17.921579013 6.091688172 -8.108949612 0.001811264 -0.077331952 2.370753158 14.126401200 -3.548804632 -5.989692532 0.087079105 -0.014960487 38.149718154 -13.877476282 -4.779848468 -30.485669316 -0.005614075 0.170524069 4.056295406
0.035297713 88.552334397 0.021817596 -1.517352226 -3.661350420 -1.007238043 -0.439112193 -0.090337953 3.925760914 0.284582432 -0.075437475 2.252623884 -0.420284369 2.275504204 4.424877920 -0.540956853 0.285348334 0.848438347 6.359172258 -9.641662289 5.303571809 1.103993578 -21.675578408 -12.768341748 -12.442458061 8.188617275 -4.902095760 39.110776700 40.134301320 -41.335812060 179.778551564 64.138241789 179.544272875 -11.454912250 5.088788607 -5.169238264 -0.001345233 0.002350493 -0.002845200 -5.108103039 0.855256541 18.972679564 13.772239150 6.360852941 2.358095727 -85.189646293 -67.799650509 23.216189315 179.848890920 -45.909945174 -179.704749431 8.197057610 9.859032432 -7.027167271 0.003649348 -0.000792820 0.000458479 -5.002438056 -0.861848546 -19.460434263 -16.171624826 -2.358084290 -24.482483341 -0.258873414 0.066485499 36.949570699 17.925184170 5.982268538 -8.080762572 0.001811264 -0.077331952 2.370753158 14.137063645 -3.522296455 -6.149834910 0.129507580 -0.046136550 38.254746297 -13.870824180 -4.848478181 -30.467123693 -0.005614075 0.170524069 4.056295406
0.056124601 88.549845339 -0.039705248 -1.538741336 -3.592116058 -0.972318316 -0.443398320 -0.085355201 3.915219422 0.283457990 -0.072141125 2.254058144 -0.412203969 2.309438288 4.430192756 -0.541985379 0.291627449 0.847959303 6.314497341 -9.593612603 5.290829909 1.087979285 -21.611045161 -12.789575180 -12.453516102 8.189644893 -4.910956709 39.287601628 40.093888970 -41.398458866 179.758237497 64.042490024 179.534345589 -11.433609398 5.097352070 -5.135834086 -0.001377098 0.002440263 -0.002724335 -5.112272034 0.855668062 18.965911044 13.840859874 6.322181684 2.305437803 -85.471453251 -67.735862195 23.304413987 179.869072404 -45.866989556 -179.725018163 8.106141823 9.775017978 -7.007615470 0.003686931 -0.000719577 0.000336319 -5.003850655 -0.862238723 -19.462647431 -16.213555440 -2.338332044 -24.503889245 -0.190217159 0.021938380 36.901870673 17.928376476 5.882354735 -8.050581505 0.001811264 -0.077331952 2.370753158 14.145061024 -3.498460656 -6.305009002 0.170045393 -0.075866965 38.360171377 -13.865372399 -4.910875762 -30.450859777 -0.005614075 0.170524069 4.056295406
0.076085862 88.546511513 -0.100731304 -1.557882112 -3.529657025 -0.941275852 -0.446934167 -0.079920662 3.909265434 0.283634378 -0.068687475 2.257555457 -0.403995978 2.344537296 4.434582044 -0.542575763 0.298158839 0.846577764 6.272640305 -9.549076748 5.272752237 1.075031891 -21.548147653 -12.809686799 -12.465440914 8.191177596 -4.919972258 39.456653655 40.054086107 -41.450461192 179.750901797 63.948301282 179.534962722 -11.410139374 5.102309134 -5.102690185 -0.001405853 0.002534453 -0.002599083 -5.116565295 0.856056646 18.958407770 13.903308406 6.281768117 2.256176793 -85.723260701 -67.681369035 23.378594754 179.888320447 -45.830660938 -179.745949222 8.026912586 9.697992326 -6.994898521 0.003730330 -0.000639856 0.000234514 -5.005796850 -0.862649002 -19.463421193 -16.252602731 -2.323088463 -24.526963599 -0.127305014 -0.018695540 36.859303427 17.930980163 5.793581964 -8.019090081 0.001811264 -0.077331952 2.370753158 14.150462700 -3.478037575 -6.453020890 0.208102130 -0.103716114 38.464470026 -13.861342944 -4.966017847 -30.437223681 -0.005614075 0.170524069 4.056295406
0.094761584 88.542354342 -0.160227431 -1.574593741 -3.474637761 -0.914441028 -0.449599339 -0.074119549 3.908017165 0.285068793 -0.065123251 2.263112162 -0.395750536 2.380339724 4.437697907 -0.542740054 0.304848711 0.844250022 6.234376702 -9.508703872 5.249683503 1.065453545 -21.488009683 -12.828349781 -12.478168905 8.193302283 -4.928857817 39.614987600 40.014534192 -41.491835109 179.756887043 63.856555411 179.546254525 -11.385235143 5.103573862 -5.070814998 -0.001431103 0.002631867 -0.002471302 -5.120899213 0.856417040 18.950376506 13.958575769 6.240012163 2.211251131 -85.942104748 -67.637028950 23.438173925 179.906318472 -45.801274715 -179.767097111 7.960361587 9.629064717 -6.989640046 0.003778122 -0.000554610 0.000154343 -5.008233221 -0.863071069 -19.462757701 -16.288065380 -2.312859117 -24.551453424 -0.071004429 -0.054932869 36.822854864 17.932814075 5.717386661 -7.986985792 0.001811264 -0.077331952 2.370753158 14.153376318 -3.461699408 -6.591801354 0.243148708 -0.129288945 38.566142148 -13.858943999 -5.013006938 -30.426516730 -0.005614075 0.170524069 4.056295406
0.111759881 88.537415967 -0.217192299 -1.588736095 -3.427595696 -0.892072488 -0.451281124 -0.068046174 3.911502274 0.287695530 -0.061498659 2.270684461 -0.387558343 2.416365675 4.439211852 -0.542504616 0.311598296 0.840955288 6.200401656 -9.473055156 5.222118539 1.059480885 -21.431694383 -12.845267418 -12.491611493 8.196108443 -4.937363644 39.759886563 39.974906404 -41.522783277 179.776193038 63.768089672 179.568078670 -11.359713358 5.101106575 -5.041212086 -0.001452514 0.002731212 -0.002342960 -5.125193456 0.856745042 18.942028869 14.005795441 6.197339051 2.171496792 -86.125648988 -67.603486702 23.482858203 179.922746935 -45.779020891 -179.787997076 7.907244282 9.569188011 -6.992321529 0.003828828 -0.000464873 0.000096566 -5.011103462 -0.863496113 -19.460694685 -16.319330213 -2.308048180 -24.577072180 -0.022027191 -0.086389083 36.793377958 17.933696102 5.654973237 -7.954963843 0.001811264 -0.077331952 2.370753158 14.153940767 -3.450032701 -6.719445718 0.274727390 -0.152238897 38.663737808 -13.858363056 -5.051090845 -30.418987270 -0.005614075 0.170524069 4.056295406
0.126726131 88.531758586 -0.270678188 -1.600211153 -3.388932966 -0.874353458 -0.451877591 -0.061801971 3.919657203 0.291427779 -0.057866372 2.280188921 -0.379509074 2.452126187 4.438824408 -0.541909277 0.318305873 0.836696685 6.171314485 -9.442592472 5.190690040 1.057279106 -21.380180729 -12.860179761 -12.505655893 8.199685081 -4.945281194 39.888921467 39.934925411 -41.543682076 179.808480974 63.683686943 179.600028051 -11.334452688 5.094914931 -5.014853807 -0.001469817 0.002831123 -0.002216093 -5.129372789 0.857037578 18.933576038 14.044261757 6.154193544 2.137628174 -86.272210103 -67.581159013 23.512604906 179.937289865 -45.763962669 -179.808175678 7.868065974 9.519140851 -7.003266760 0.003880946 -0.000371738 0.000061408 -5.014339743 -0.863915039 -19.457304390 -16.345887166 -2.308947987 -24.603502990 0.019084886 -0.112782004 36.771567349 17.933448204 5.607285998 -7.923701044 0.001811264 -0.077331952 2.370753158 14.152318666 -3.443522919 -6.834249538 0.302459562 -0.172274727 38.755881939 -13.859760045 -5.079678644 -30.414823164 -0.005614075 0.170524069 4.056295406
0.139351305 88.525463285 -0.319811518 -1.608963608 -3.358911092 -0.861389653 -0.451300518 -0.055493330 3.932328597 0.296159885 -0.054280435 2.291503890 -0.371689787 2.487132804 4.436274125 -0.541006132 0.324868869 0.831501643 6.147605447 -9.417669559 5.156152786 1.058937627 -21.334342055 -12.872869355 -12.520166540 8.204117542 -4.952448252 40.000003916 39.894379141 -41.555064803 179.853085131 63.604065399 179.641444277 -11.310370324 5.085053943 -4.992655590 -0.001482816 0.002930186 -0.002092760 -5.133368733 0.857292742 18.925223518 14.073444650 6.111033647 2.110221860 -86.380772947 -67.570225723 23.527607127 179.949641528 -45.756037851 -179.827161656 7.843073688 9.479513522 -7.022630221 0.003932990 -0.000276345 0.000048567 -5.017864359 -0.864318699 -19.452691667 -16.367341295 -2.315731101 -24.630402439 0.051969135 -0.133932863 36.757937838 17.931901926 5.574987150 -7.893840058 0.001811264 -0.077331952 2.370753158 14.148688773 -3.442541466 -6.934739477 0.326051213 -0.189166064 38.841296740 -13.863260779 -5.098352791 -30.414145283 -0.005614075 0.170524069 4.056295406
0.149379218 88.518628400 -0.363811630 -1.614980667 -3.337648763 -0.853208801 -0.449478065 -0.049229298 3.949276782 0.301770031 -0.050795120 2.304471790 -0.364183361 2.520907164 4.431345694 -0.539858016 0.331185995 0.825421697 6.129644936 -9.398525899 5.119364778 1.064467507 -21.294927076 -12.883165939 -12.534987125 8.209484320 -4.958752721 40.091431070 39.853134026 -41.557601517 179.909031559 63.529869848 179.691436245 -11.288397303 5.071624916 -4.975451451 -0.001491389 0.003026975 -0.001975003 -5.137121047 0.857509807 18.917166092 14.093000374 6.068323854 2.089703671 -86.450995454 -67.570627237 23.528278819 179.959513076 -45.755062980 -179.844496874 7.832254047 9.450697759 -7.050389802 0.003983533 -0.000179853 0.000057223 -5.021591636 -0.864698116 -19.446991259 -16.383421482 -2.328445087 -24.657405066 0.076445913 -0.149765242 36.752807751 17.928904239 5.558441631 -7.865974386 0.001811264 -0.077331952 2.370753158 14.143238717 -3.447335434 -7.019698852 0.345296151 -0.202747614 38.918821656 -13.868951056 -5.106877117 -30.417002315 -0.005614075 0.170524069 4.056295406
0.156612494 88.511367446 -0.402007354 -1.618291073 -3.325122733 -0.849761778 -0.446357113 -0.043119175 3.970181208 0.308123256 -0.047463773 2.318902250 -0.357067005 2.552990389 4.423876987 -0.538536698 0.337159361 0.818531690 6.117675397 -9.385283442 5.081265786 1.073800668 -21.262543848 -12.890949938 -12.549943195 8.215853946 -4.964134977 40.161921404 39.811145334 -41.552076155 179.975063119 63.461664811 179.748903157 -11.269453277 5.054773371 -4.963971402 -0.001495492 0.003120070 -0.001864796 -5.140578971 0.857689197 18.909583095 14.102777949 6.026527997 2.076339344 -86.483203483 -67.582068299 23.515240415 179.966639095 -45.760740112 -179.859747113 7.835337248 9.432880681 -7.086344107 0.004031236 -0.000083420 0.000086067 -5.025430027 -0.865044720 -19.440364354 -16.393985590 -2.347010118 -24.684128639 0.092517276 -0.160302159 36.756287945 17.924323482 5.557709298 -7.840634465 0.001811264 -0.077331952 2.370753158 14.136158364 -3.458020337 -7.088187475 0.360077104 -0.212921916 38.987430965 -13.876871743 -5.105200564 -30.423367188 -0.005614075 0.170524069 4.056295406
0.160917124 88.503806660 -0.433851002 -1.618963370 -3.321171792 -0.850925314 -0.441905215 -0.037270095 3.994647736 0.315074756 -0.044337671 2.334575999 -0.350410888 2.582952064 4.413764825 -0.537120840 0.342696520 0.810928385 6.111806175 -9.377946191 5.042853860 1.086790990 -21.237647059 -12.896154688 -12.564845280 8.223282030 -4.968588739 40.210640433 39.768464323 -41.539361669 -179.950329816 63.399929386 179.812561348 -11.254421388 5.034686019 -4.958821335 -0.001495155 0.003208095 -0.001764009 -5.143702223 0.857832434 18.902634114 14.102821149 5.986101798 2.070229076 -86.478375618 -67.604027936 23.489305177 179.970783914 -45.772666060 -179.872512496 7.851807031 9.426042998 -7.130114473 0.004074885 0.000011816 0.000133343 -5.029284368 -0.865350561 -19.432994485 -16.399022009 -2.371219468 -24.710180280 0.100360715 -0.165661586 36.768277022 17.918055133 5.572544777 -7.818275230 0.001811264 -0.077331952 2.370753158 14.127634055 -3.474575974 -7.139555527 0.370364871 -0.219660635 39.046248956 -13.887015161 -5.093456609 -30.433135359 -0.005614075 0.170524069 4.056295406
0.162225491 88.496082218 -0.458929429 -1.617103472 -3.325503690 -0.856506202 -0.436112096 -0.031784616 4.022217586 0.322473377 -0.041464921 2.351249422 -0.344276920 2.610398588 4.400969320 -0.535693769 0.347712402 0.802728538 6.112011477 -9.376402619 5.005160390 1.103217235 -21.220528935 -12.898767300 -12.579492453 8.231808546 -4.972160425 40.237215753 39.725242063 -41.520393897 -179.868873710 63.345053863 179.880974292 -11.244123880 5.011586932 -4.960465914 -0.001490485 0.003289741 -0.001674363 -5.146461714 0.857942055 18.896455228 14.093365981 5.947485258 2.071306106 -86.438117800 -67.635775222 23.451466022 179.971747559 -45.790343844 -179.882437308 7.880916380 9.429961537 -7.181151638 0.004113424 0.000104756 0.000196893 -5.033058223 -0.865608512 -19.425082887 -16.398647634 -2.400742928 -24.735163416 0.100318454 -0.166050673 36.788463021 17.910027140 5.602405017 -7.799265469 0.001811264 -0.077331952 2.370753158 14.117843893 -3.496845527 -7.173451341 0.376215755 -0.223004361 39.094562732 -13.899323004 -5.071958489 -30.446125185 -0.005614075 0.170524069 4.056295406
0.160537802 88.488337186 -0.476971916 -1.612851559 -3.337704822 -0.866246913 -0.428990660 -0.026758408 4.052377738 0.330165207 -0.038889429 2.368659685 -0.338717742 2.634980732 4.385516675 -0.534341124 0.352131089 0.794066455 6.118131514 -9.380430774 4.969224331 1.122787772 -21.211313980 -12.898828171 -12.593676266 8.241455440 -4.974947028 40.241740994 39.681729934 -41.496144907 -179.782472018 63.297338041 179.952585182 -11.239299088 4.985733042 -4.969214928 -0.001481660 0.003363796 -0.001597395 -5.148839971 0.858021502 18.891155868 14.074833699 5.911095052 2.079339372 -86.364627594 -67.676390332 23.402882281 179.969371226 -45.813196093 -179.889218981 7.921708527 9.444216092 -7.238746874 0.004145973 0.000194366 0.000274219 -5.036656271 -0.865812446 -19.416843422 -16.393102428 -2.435133073 -24.758685483 0.092882905 -0.161758847 36.816331594 17.900204487 5.646464355 -7.783879268 0.001811264 -0.077331952 2.370753158 14.106954146 -3.524537901 -7.189823065 0.377767483 -0.223060934 39.131832622 -13.913685973 -5.041190409 -30.462080502 -0.005614075 0.170524069 4.056295406
0.155921878 88.480718292 -0.487854703 -1.606378376 -3.357252402 -0.879832476 -0.420577479 -0.022278077 4.084572531 0.337997198 -0.036649972 2.386530298 -0.333775936 2.656400203 4.367500346 -0.533148439 0.355887379 0.785091111 6.129876869 -9.389705898 4.936066212 1.145146990 -21.209957669 -12.896429154 -12.607184966 8.252224629 -4.977092567 40.224768592 39.638276891 -41.467596516 -179.693161921 63.256991132 -179.974248519 -11.240580370 4.957409150 -4.985213446 -0.001468927 0.003429167 -0.001534422 -5.150831257 0.858074991 18.886816391 14.047819502 5.877317107 2.093940214 -86.260647897 -67.724790206 23.344865538 179.963542128 -45.840580058 -179.892616034 7.973042688 9.468200512 -7.302047239 0.004171857 0.000279687 0.000362550 -5.039986664 -0.865957388 -19.408497188 -16.382740870 -2.473834277 -24.780366238 0.078678952 -0.153149953 36.851180350 17.888592767 5.703636623 -7.772289792 0.001811264 -0.077331952 2.370753158 14.095116797 -3.557233279 -7.188914298 0.375233818 -0.220002296 39.157700135 -13.929945191 -5.001795023 -30.480675456 -0.005614075 0.170524069 4.056295406
0.148511328 88.473372580 -0.491602058 -1.597880993 -3.383528821 -0.896898477 -0.410932736 -0.018419198 4.118216184 0.345820717 -0.034779384 2.404576988 -0.329483494 2.674415088 4.347080546 -0.532198722 0.358928127 0.775962879 6.146836016 -9.403810286 4.906662536 1.169883242 -21.216249120 -12.891710460 -12.619807878 8.264096454 -4.978783209 40.187291590 39.595323690 -41.435714627 -179.603068444 63.224133137 -179.901219143 -11.248477514 4.926922615 -5.008436056 -0.001452590 0.003484905 -0.001486512 -5.152441381 0.858107367 18.883486408 14.013077203 5.846499589 2.114572955 -86.129409968 -67.779758016 23.278863543 179.954197586 -45.871803858 -179.892454750 8.033623815 9.501137861 -7.370074471 0.004190619 0.000359856 0.000458915 -5.042963316 -0.866039634 -19.400266969 -16.368020603 -2.516194280 -24.799846435 0.058443778 -0.140653502 36.892138841 17.875240518 5.772603634 -7.764565594 0.001811264 -0.077331952 2.370753158 14.082468154 -3.594391748 -7.171253883 0.368898016 -0.214059901 39.171993361 -13.947895376 -4.954557605 -30.501521550 -0.005614075 0.170524069 4.056295406
0.138502132 88.466444045 -0.488383875 -1.587578105 -3.415837810 -0.917039986 -0.400139630 -0.015244596 4.152705939 0.353494937 -0.033303888 2.422513747 -0.325861553 2.688844048 4.324482067 -0.531570080 0.361213311 0.766849961 6.168485834 -9.422245098 4.881921189 1.196538145 -21.229817684 -12.884856394 -12.631339874 8.277028637 -4.980241190 40.130714953 39.553394343 -41.401424953 -179.514356781 63.198797572 -179.830032057 -11.263361093 4.894597905 -5.038685319 -0.001433011 0.003530224 -0.001454465 -5.153687224 0.858123941 18.881183916 13.971500211 5.818946503 2.140569111 -85.974565834 -67.839975526 23.206441180 179.941328235 -45.906143585 -179.888634399 8.102035549 9.542099388 -7.441746981 0.004202030 0.000434117 0.000560221 -5.045508044 -0.866056839 -19.392371640 -16.349488701 -2.561478079 -24.816796600 0.033004933 -0.124755057 36.938193384 17.860240164 5.851849147 -7.760669591 0.001811264 -0.077331952 2.370753158 14.069128427 -3.635364833 -7.137640130 0.359105254 -0.205518749 39.174729660 -13.967289640 -4.900387326 -30.524176763 -0.005614075 0.170524069 4.056295406
0.126147732 88.460070310 -0.478509880 -1.575704955 -3.453421996 -0.939821215 -0.388303244 -0.012802934 4.187435511 0.360889999 -0.032242580 2.440058897 -0.322920413 2.699569168 4.299990469 -0.531333477 0.362716804 0.757924604 6.194204907 -9.444443789 4.862658397 1.224616997 -21.250143289 -12.876090061 -12.641585803 8.290955780 -4.981717694 40.056817187 39.513085133 -41.365590631 -179.429183687 63.180935389 -179.762368686 -11.285450126 4.860771147 -5.075594492 -0.001410593 0.003564513 -0.001438788 -5.154595969 0.858130325 18.879895249 13.924099307 5.794912145 2.171144889 -85.800110419 -67.904057372 23.129257521 179.924980216 -45.942860831 -179.881130843 8.176775484 9.590026962 -7.515904254 0.004206092 0.000501834 0.000663334 -5.047552525 -0.866008062 -19.385020674 -16.327765996 -2.608883815 -24.830925566 0.003257293 -0.105985778 36.988215773 17.843727498 5.939697283 -7.760460765 0.001811264 -0.077331952 2.370753158 14.055202105 -3.679409662 -7.089119824 0.346254141 -0.194710086 39.166115449 -13.987845702 -4.840296178 -30.548156512 -0.005614075 0.170524069 4.056295406
0.111752751 88.454379443 -0.462420579 -1.562507984 -3.495481410 -0.964785680 -0.375548915 -0.011127636 4.221808523 0.367889849 -0.031607078 2.456941052 -0.320659819 2.706537407 4.273946734 -0.531550650 0.363426840 0.749359182 6.223289279 -9.469786784 4.849577793 1.253600054 -21.276570282 -12.865667209 -12.650364783 8.305789429 -4.983484895 39.967703301 39.475051546 -41.328992155 -179.349648818 63.170419981 -179.699849882 -11.314803382 4.825784845 -5.118634452 -0.001385776 0.003587354 -0.001439693 -5.155204079 0.858132251 18.879575849 13.871977760 5.774596588 2.205421506 -85.610294098 -67.970586257 23.049038280 179.905256250 -45.981220219 -179.869998382 8.256291785 9.643758502 -7.591333000 0.004203037 0.000562498 0.000765160 -5.049040019 -0.865893786 -19.378408896 -16.303529926 -2.657560309 -24.841988429 -0.029860499 -0.084911101 37.040994815 17.825879677 6.034354235 -7.763698592 0.001811264 -0.077331952 2.370753158 14.040778942 -3.725705465 -7.026962477 0.330787361 -0.182002909 39.146542863 -14.009253234 -4.775376068 -30.572946132 -0.005614075 0.170524069 4.056295406
0.095665488 88.449486979 -0.440675195 -1.548239307 -3.541192486 -0.991466638 -0.362020124 -0.010236189 4.255251597 0.374394707 -0.031401352 2.472904809 -0.319069507 2.709760620 4.246740475 -0.532272258 0.363346154 0.741322253 6.254970292 -9.497617051 4.843252052 1.282954391 -21.308324437 -12.853869395 -12.657514243 8.321418709 -4.985827334 39.865750376 39.439993484 -41.292309956 -179.277746925 63.167053145 -179.644000268 -11.351314511 4.789982843 -5.167124636 -0.001359026 0.003598526 -0.001457084 -5.155556031 0.858135407 18.880151834 13.816304400 5.758142399 2.242447842 -85.409526877 -68.038148066 22.967543324 179.882315496 -46.020506509 -179.855369740 8.339020206 9.702055870 -7.666794295 0.004193322 0.000615733 0.000862726 -5.049926802 -0.865715891 -19.372711596 -16.277496383 -2.706625841 -24.849793570 -0.065389589 -0.062118602 37.095269541 17.806911813 6.133952061 -7.770050119 0.001811264 -0.077331952 2.370753158 14.025935353 -3.773372023 -6.952630332 0.313181552 -0.167794421 39.116583091 -14.031181998 -4.706774643 -30.598014493 -0.005614075 0.170524069 4.056295406
0.078269379 88.445493230 -0.413936897 -1.533151147 -3.589727088 -1.019397551 -0.347875975 -0.010129831 4.287226801 0.380323080 -0.031621715 2.487716056 -0.318129974 2.709314147 4.218801886 -0.533536301 0.362491804 0.733974668 6.288434043 -9.527256175 4.844107539 1.312146044 -21.344532709 -12.840996658 -12.662893625 8.337711523 -4.989032898 39.753547190 39.408639167 -41.256109928 -179.215321827 63.170571887 -179.596214158 -11.394711142 4.753705626 -5.220247737 -0.001330821 0.003598007 -0.001490569 -5.155702857 0.858145259 18.881522321 13.758285323 5.745632714 2.281224818 -85.202275871 -68.105365966 22.886529323 179.856372152 -46.060040865 -179.837454153 8.423420549 9.763634575 -7.741051011 0.004177611 0.000661297 0.000953253 -5.050183288 -0.865477608 -19.368080138 -16.250401016 -2.755187727 -24.854208431 -0.102374009 -0.038205102 37.149762995 17.787072297 6.236593306 -7.779099533 0.001811264 -0.077331952 2.370753158 14.010736022 -3.821489633 -6.867744716 0.293936493 -0.152499632 39.076976200 -14.053290424 -4.635670402 -30.622828285 -0.005614075 0.170524069 4.056295406
0.059973635 88.442480938 -0.382955675 -1.517490331 -3.640271090 -1.048122335 -0.333288307 -0.010793639 4.317243148 0.385613291 -0.032257001 2.501166759 -0.317813460 2.705334033 4.190592611 -0.535366848 0.360894665 0.727465845 6.322841962 -9.558020586 4.852412317 1.340652127 -21.384245251 -12.827359921 -12.666387642 8.354516298 -4.993383603 39.633829478 39.381728077 -41.220832123 -179.164023110 63.180655982 -179.557723703 -11.444557956 4.717286017 -5.277067772 -0.001301644 0.003585978 -0.001539462 -5.155700518 0.858166891 18.883562445 13.699134940 5.737090751 2.320730880 -84.992958352 -68.170932589 22.807708213 179.827692757 -46.099195881 -179.816533532 8.508011648 9.827194565 -7.812894838 0.004156760 0.000699084 0.001034228 -5.049794808 -0.865183426 -19.364638164 -16.222980476 -2.802362233 -24.855163762 -0.139882916 -0.013763161 37.203215498 17.766637051 6.340395265 -7.790359986 0.001811264 -0.077331952 2.370753158 13.995235546 -3.869120130 -6.774049399 0.273563724 -0.136540390 39.028617334 -14.075234267 -4.563247631 -30.646866492 -0.005614075 0.170524069 4.056295406
0.041203284 88.440513332 -0.348549317 -1.501493005 -3.692042076 -1.077205146 -0.318438525 -0.012197024 4.344866867 0.390224490 -0.033288894 2.513079119 -0.318085082 2.698012920 4.162595747 -0.537773114 0.358598620 0.721930279 6.357351965 -9.589237581 4.868267831 1.367972625 -21.426459150 -12.813273304 -12.667909017 8.371664225 -4.999146436 39.509412519 39.359993319 -41.186782764 -179.125266482 63.196936168 -179.529569913 -11.500263686 4.681045263 -5.336551082 -0.001271973 0.003562812 -0.001602801 -5.155608160 0.858204850 18.886126995 13.640047109 5.732480821 2.359947929 -84.785833123 -68.233639561 22.732702610 179.796592220 -46.137409000 -179.792956782 8.591404034 9.891451350 -7.881172232 0.004131789 0.000729118 0.001103471 -5.048762021 -0.864838990 -19.362478488 -16.195954007 -2.847294350 -24.852656135 -0.177031651 0.010632805 37.254416432 17.745902946 6.443532738 -7.803287382 0.001811264 -0.077331952 2.370753158 13.979479962 -3.915328462 -6.673371703 0.252574756 -0.120334116 38.972539263 -14.096675024 -4.490671695 -30.669634545 -0.005614075 0.170524069 4.056295406
0.022388861 88.439632643 -0.311582927 -1.485379669 -3.744305735 -1.106239472 -0.303514197 -0.014294601 4.369730218 0.394137107 -0.034692422 2.523309006 -0.318904095 2.687594747 4.135305226 -0.540748902 0.355659461 0.717484393 6.391139611 -9.620260791 4.891604459 1.393641570 -21.470143294 -12.799046558 -12.667400637 8.388971963 -5.006564494 39.383122752 39.344143763 -41.154129737 -179.100198691 63.219002901 -179.512577193 -11.561091860 4.645289532 -5.397589741 -0.001242268 0.003529068 -0.001679373 -5.155486290 0.858263013 18.889054575 13.582167068 5.731710769 2.397887018 -84.584893420 -68.292403711 22.662999861 179.763428634 -46.174194008 -179.767132366 8.672329514 9.955166627 -7.944808714 0.004103857 0.000751547 0.001159183 -5.047100953 -0.864450961 -19.361660766 -16.170005833 -2.889176957 -24.846748579 -0.213001283 0.034440506 37.302233699 17.725180660 6.544278244 -7.817295758 0.001811264 -0.077331952 2.370753158 13.963508048 -3.959204282 -6.567582144 0.231469072 -0.104282612 38.909891396 -14.117287800 -4.419065166 -30.690677657 -0.005614075 0.170524069 4.056295406
0.003956003 88.439859096 -0.272947516 -1.469350688 -3.796390568 -1.134856307 -0.288705530 -0.017027419 4.391538633 0.397352755 -0.036436580 2.531748582 -0.320225219 2.674368358 4.109214832 -0.544272430 0.352143523 0.714223785 6.423418713 -9.650484788 4.922181083 1.417237320 -21.514263755 -12.784977776 -12.664837064 8.406244733 -5.015848647 39.257730130 39.334846292 -41.122901623 -179.089667912 63.246415527 -179.507332048 -11.626175069 4.610306798 -5.459026792 -0.001212960 0.003485475 -0.001767739 -5.155394931 0.858344457 18.892172185 13.526564874 5.734635802 2.433613162 -84.393764893 -68.346289469 22.599906801 179.728596973 -46.209150314 -179.739519291 8.749667002 10.017177586 -8.002830999 0.004074229 0.000766636 0.001199999 -5.044842660 -0.864026860 -19.362209985 -16.145768686 -2.927268895 -24.837569299 -0.247056383 0.057163442 37.345640165 17.704787236 6.641038774 -7.831773823 0.001811264 -0.077331952 2.370753158 13.947352368 -3.999883036 -6.458553445 0.210722183 -0.088761286 38.841915489 -14.136768403 -4.349485256 -30.709592869 -0.005614075 0.170524069 4.056295406
-0.013684801 88.441190428 -0.233538181 -1.453582378 -3.847700568 -1.162731214 -0.274201772 -0.020324526 4.410076020 0.399893590 -0.038485089 2.538328073 -0.322000008 2.658660214 4.084807115 -0.548306549 0.348126094 0.712220960 6.453460824 -9.679358527 4.959588717 1.438391696 -21.557809058 -12.771346580 -12.660225361 8.423279724 -5.027169945 39.135882865 39.332708510 -41.092990330 -179.094200370 63.278711777 -179.514166539 -11.694532406 4.576364081 -5.519682701 -0.001184448 0.003432916 -0.001866266 -5.155391790 0.858451362 18.895300101 13.474211027 5.741063523 2.466268617 -84.215612284 -68.394527071 22.544507535 179.692521817 -46.241969803 -179.710616741 8.822464046 10.076424101 -8.054386495 0.004044241 0.000774751 0.001225013 -5.042032522 -0.863574906 -19.364115819 -16.123808860 -2.960911524 -24.825308500 -0.278560758 0.078363841 37.383736564 17.685038630 6.732388326 -7.846102215 0.001811264 -0.077331952 2.370753158 13.931040035 -4.036566029 -6.348119820 0.190774009 -0.074109150 38.769918471 -14.154839476 -4.282902991 -30.726039413 -0.005614075 0.170524069 4.056295406
-0.030148045 88.443601917 -0.194232408 -1.438223793 -3.897725596 -1.189590098 -0.260187645 -0.024104799 4.425208118 0.401801128 -0.040797246 2.543016628 -0.324178197 2.640826347 4.062542472 -0.552799345 0.343689628 0.711523582 6.480613101 -9.706397351 5.003258146 1.456797750 -21.599814711 -12.758407892 -12.653605229 8.439869750 -5.040652968 39.020046117 39.338262222 -41.064157336 -179.113983961 63.315417398 -179.533147055 -11.765089691 4.543705032 -5.578382376 -0.001157087 0.003372409 -0.001973168 -5.155530497 0.858584929 18.898256936 13.425954863 5.750760020 2.495094044 -84.053058412 -68.436526326 22.497626644 179.655649292 -46.272441101 -179.680952611 8.889953640 10.131973041 -8.098759828 0.004015264 0.000776351 0.001233808 -5.038729188 -0.863103827 -19.367332861 -16.104613058 -2.989543345 -24.810213443 -0.306990896 0.097674373 37.415770500 17.666242482 6.817095599 -7.859670964 0.001811264 -0.077331952 2.370753158 13.914593265 -4.068538950 -6.238037448 0.172017930 -0.060619951 38.695242966 -14.171255570 -4.220184520 -30.739747044 -0.005614075 0.170524069 4.056295406
-0.045082405 88.447046946 -0.155869045 -1.423394290 -3.946049230 -1.215213555 -0.246839884 -0.028279017 4.436883817 0.403134580 -0.043328869 2.545822264 -0.326708999 2.621243793 4.042848660 -0.557685118 0.338921815 0.712153308 6.504314065 -9.731193305 5.052471446 1.472215995 -21.639386376 -12.746386444 -12.645048429 8.455807057 -5.056370298 38.912446044 39.351948038 -41.036043470 -179.148859432 63.356055773 -179.564068867 -11.836702017 4.512547843 -5.633982111 -0.001131181 0.003305079 -0.002086542 -5.155858955 0.858745326 18.900864750 13.382506255 5.763456757 2.519447021 -83.908118715 -68.471885835 22.459800066 179.618438433 -46.300451158 -179.651071264 8.951565996 10.183039018 -8.135386090 0.003988667 0.000771967 0.001226458 -5.035003196 -0.862622672 -19.371781739 -16.088577320 -3.012712334 -24.792581930 -0.331946870 0.114808172 37.441151329 17.648691343 6.894146365 -7.871896679 0.001811264 -0.077331952 2.370753158 13.898029799 -4.095188413 -6.129947052 0.154790829 -0.048534696 38.619236219 -14.185807096 -4.162074945 -30.750522114 -0.005614075 0.170524069 4.056295406
-0.058179052 88.451458070 -0.119228434 -1.409181950 -3.992353920 -1.239439690 -0.234323949 -0.032752098 4.445134441 0.403968732 -0.046033292 2.546790911 -0.329542324 2.600301686 4.026110991 -0.562885714 0.333913549 0.714105221 6.524106855 -9.753423539 5.106377136 1.484478947 -21.675721119 -12.735472110 -12.634657531 8.470887194 -5.074338260 38.815020458 39.374101404 -41.008182163 -179.198319575 63.400157293 -179.606456802 -11.908178093 4.483083483 -5.685395797 -0.001106979 0.003232138 -0.002204410 -5.156417843 0.858931657 18.902954080 13.344421063 5.778858046 2.538817451 -83.782154068 -68.500397604 22.431255574 179.581352216 -46.325984135 -179.621520835 9.006935119 10.229001002 -8.163860594 0.003965775 0.000762191 0.001203529 -5.030935302 -0.862140619 -19.377351065 -16.075998245 -3.030085661 -24.772754457 -0.353160496 0.129566717 37.459460841 17.632656529 6.962760207 -7.882238974 0.001811264 -0.077331952 2.370753158 13.881363331 -4.116016080 -6.025339522 0.139364465 -0.038035849 38.543218314 -14.198323168 -4.109184981 -30.758251231 -0.005614075 0.170524069 4.056295406
-0.069178890 88.456748567 -0.085014215 -1.395642909 -4.036423363 -1.262165341 -0.222790986 -0.037425446 4.450071005 0.404391426 -0.048862409 2.546004558 -0.332629876 2.578392242 4.012663457 -0.568312179 0.328756838 0.717347879 6.539649647 -9.772856606 5.164008647 1.493493874 -21.708126200 -12.725816154 -12.622563994 8.484912875 -5.094514052 38.729377175 39.404940413 -40.980015959 -179.261516690 63.447268266 -179.659572290 -11.978305823 4.455474268 -5.731619775 -0.001084673 0.003154852 -0.002324766 -5.157239317 0.859141958 18.904368760 13.312090656 5.796648827 2.552839490 -83.675843900 -68.522047115 22.411904240 179.544848497 -46.349117632 -179.592840443 9.055900112 10.269414333 -8.183945014 0.003947839 0.000747653 0.001166062 -5.026614555 -0.861666775 -19.383900195 -16.067066662 -3.041456580 -24.751105358 -0.370500490 0.141845164 37.470459757 17.618382743 7.022401400 -7.890215657 0.001811264 -0.077331952 2.370753158 13.864604053 -4.130650034 -5.925525459 0.125938494 -0.029243330 38.468450643 -14.208673384 -4.061980776 -30.762902479 -0.005614075 0.170524069 4.056295406
-0.077878554 88.462814445 -0.053837223 -1.382801599 -4.078142086 -1.283345690 -0.212375116 -0.042199357 4.451879543 0.404500727 -0.051767726 2.543578586 -0.335926130 2.555901857 4.002780981 -0.573866696 0.323542726 0.721823985 6.550722994 -9.789356507 5.224305693 1.499243723 -21.736034956 -12.717528459 -12.608925651 8.497697725 -5.116794346 38.656760889 39.444555692 -40.950916044 -179.337278367 63.496959103 -179.722426819 -12.045878536 4.429852819 -5.771755757 -0.001064392 0.003074521 -0.002445619 -5.158345930 0.859373230 18.904970413 13.285735749 5.816502522 2.561299730 -83.589180706 -68.537008942 22.401343643 179.509371123 -46.370016391 -179.565547652 9.098501291 10.304017822 -8.195569805 0.003935995 0.000729007 0.001115541 -5.022136177 -0.861209987 -19.391262708 -16.061863896 -3.046748285 -24.728033240 -0.383974449 0.151634841 37.474090144 17.606083546 7.072783887 -7.895416292 0.001811264 -0.077331952 2.370753158 13.847759454 -4.138853106 -5.831609446 0.114635424 -0.022212436 38.396105639 -14.216768624 -4.020777117 -30.764524248 -0.005614075 0.170524069 4.056295406
-0.084134992 88.469536835 -0.026201873 -1.370651909 -4.117492266 -1.302992288 -0.203191082 -0.046975401 4.450814617 0.404401825 -0.054701408 2.539658329 -0.339389153 2.533202520 3.996673005 -0.579444761 0.318359256 0.727451654 6.557233937 -9.802884347 5.286138045 1.501786192 -21.759019362 -12.710675770 -12.593923637 8.509069839 -5.141015413 38.598029242 39.492902697 -40.920204445 -179.424131411 63.548831513 -179.793801686 -12.109721262 4.406321430 -5.805031253 -0.001046205 0.002992441 -0.002565032 -5.159749821 0.859621489 18.904642495 13.265404671 5.838088704 2.564141434 -83.521486148 -68.545638079 22.398872836 179.475341449 -46.388923643 -179.540126530 9.134971272 10.332735764 -8.198832927 0.003931237 0.000706912 0.001053859 -5.017599281 -0.860778650 -19.399250543 -16.060360700 -3.046014657 -24.703951075 -0.393727485 0.159022713 37.470473905 17.595937723 7.113870345 -7.897513761 0.001811264 -0.077331952 2.370753158 13.830835461 -4.140527961 -5.744469794 0.105497715 -0.016933691 38.327238823 -14.222560988 -3.985734222 -30.763241816 -0.005614075 0.170524069 4.056295406
-0.087868555 88.476784730 -0.002495366 -1.359159227 -4.154547919 -1.321169547 -0.195332331 -0.051658737 4.447191202 0.404203777 -0.057617290 2.534414966 -0.342981271 2.510643764 3.994478544 -0.584937554 0.313289542 0.734126257 6.559216816 -9.813497547 5.348331149 1.501251005 -21.776798999 -12.705280983 -12.577758855 8.518875073 -5.166954777 38.553638487 39.549796672 -40.887178447 -179.520333481 63.602524464 -179.872273738 -12.168716436 4.384951930 -5.830817054 -0.001030119 0.002909885 -0.002681171 -5.161452164 0.859881853 18.903293797 13.250976054 5.861080399 2.561464771 -83.471447944 -68.548457157 22.403518391 179.443150492 -46.406150358 -179.517016631 9.165721317 10.355674860 -8.193994900 0.003934381 0.000682014 0.000983261 -5.013104504 -0.860380526 -19.407658665 -16.062418877 -3.039437881 -24.679276256 -0.400037389 0.164187752 37.459907515 17.588086536 7.145865483 -7.896273531 0.001811264 -0.077331952 2.370753158 13.813837979 -4.135718830 -5.664744323 0.098487203 -0.013334574 38.262764130 -14.226042968 -3.956858254 -30.759251911 -0.005614075 0.170524069 4.056295406
-0.089064496 88.484418002 0.017020039 -1.348263285 -4.189466627 -1.337989815 -0.188869550 -0.056160297 4.441375129 0.404016159 -0.060471840 2.528040845 -0.346669585 2.488545336 3.996262852 -0.590234429 0.308409982 0.741722787 6.556830819 -9.821346582 5.409692971 1.497835461 -21.789246194 -12.701323494 -12.560648050 8.526980002 -5.194334383 38.523638975 39.614910529 -40.851136674 -179.623911810 63.657718652 -179.956246579 -12.221828431 4.365786085 -5.848641337 -0.001016084 0.002828071 -0.002792335 -5.163442925 0.860148651 18.900861297 13.242165861 5.885160818 2.553523053 -83.437175896 -68.546139809 22.414070178 179.413151917 -46.422062700 -179.496603174 9.191323321 10.373116178 -8.181470335 0.003946050 0.000654930 0.000906288 -5.008751594 -0.860022581 -19.416270169 -16.067795588 -3.027322999 -24.654420922 -0.403306276 0.167394287 37.442853220 17.582631841 7.169203772 -7.891560426 0.001811264 -0.077331952 2.370753158 13.796774821 -4.124609841 -5.592822640 0.093486922 -0.011283023 38.203433387 -14.227245977 -3.934005586 -30.752815524 -0.005614075 0.170524069 4.056295406
-0.087772860 88.492290612 0.032211500 -1.337881741 -4.222479061 -1.353607184 -0.183849700 -0.060398791 4.433772367 0.403945719 -0.063225046 2.520744361 -0.350426315 2.467190768 4.002015754 -0.595225491 0.303788670 0.750098700 6.550354374 -9.826669289 5.469041393 1.491798390 -21.796387220 -12.698740584 -12.542819587 8.533274473 -5.222825202 38.507680430 39.687775826 -40.811406207 -179.732708094 63.714139304 179.956013455 -12.268126360 4.348836604 -5.858200091 -0.001003996 0.002748139 -0.002896996 -5.165700910 0.860415560 18.897312310 13.238538508 5.910029392 2.540715101 -83.416274627 -68.539490468 22.429125021 179.385656020 -46.437068024 -179.479208674 9.212487892 10.385502440 -8.161816102 0.003966646 0.000626231 0.000825710 -5.004637024 -0.859710828 -19.424861677 -16.076150272 -3.010089531 -24.629782827 -0.404048743 0.168982553 37.419926882 17.579634996 7.184531902 -7.883342739 0.001811264 -0.077331952 2.370753158 13.779657973 -4.107520013 -5.528845148 0.090305331 -0.010592552 38.149820681 -14.226238347 -3.916890783 -30.744249272 -0.005614075 0.170524069 4.056295406
-0.084106759 88.500253952 0.043076720 -1.327914376 -4.253876580 -1.368210194 -0.180295550 -0.064302485 4.424817392 0.404093115 -0.065841205 2.512744502 -0.354229006 2.446821990 4.011651705 -0.599804167 0.299484030 0.759097149 6.540176585 -9.829782838 5.525231500 1.483452662 -21.798399563 -12.697429815 -12.524509038 8.537673705 -5.252053185 38.505026829 39.767786948 -40.767369982 -179.844428477 63.771557155 179.866337421 -12.306804582 4.334088793 -5.859363614 -0.000993701 0.002671128 -0.002993829 -5.168194114 0.860675762 18.892645860 13.239521794 5.935407006 2.523573961 -83.405930071 -68.529420974 22.447136014 179.360924830 -46.451599808 -179.465086203 9.230039092 10.393421058 -8.135716403 0.003996340 0.000596433 0.000744450 -5.000851680 -0.859450196 -19.433208913 -16.087054054 -2.988260412 -24.605736952 -0.402876676 0.169356770 37.391882696 17.579116507 7.192686346 -7.871693627 0.001811264 -0.077331952 2.370753158 13.762506084 -4.084895038 -5.472708844 0.088682868 -0.011028797 38.102312120 -14.223122863 -3.905098154 -30.733915634 -0.005614075 0.170524069 4.056295406
-0.078239087 88.508160218 0.049741711 -1.318247782 -4.283997250 -1.382013644 -0.178205741 -0.067810712 4.414960953 0.404549833 -0.068289601 2.504265222 -0.358060576 2.427635115 4.025011565 -0.603869737 0.295543722 0.768550555 6.526785957 -9.831073532 5.577182044 1.473156459 -21.795605309 -12.697252399 -12.505954663 8.540119899 -5.281606433 38.514580459 39.854208529 -40.718493679 -179.956697358 63.829787530 179.776611024 -12.337200454 4.321502878 -5.852178945 -0.000985003 0.002597957 -0.003081733 -5.170880363 0.860922118 18.886893254 13.244425215 5.961040356 2.502752248 -83.403006363 -68.516924432 22.466465150 179.339168426 -46.466101928 -179.454414448 9.244886440 10.397583435 -8.103965057 0.004035062 0.000565980 0.000665507 -4.997478694 -0.859244419 -19.441092300 -16.100001464 -2.962448499 -24.582628044 -0.400480952 0.168971190 37.359594972 17.581056319 7.194666485 -7.856789785 0.001811264 -0.077331952 2.370753158 13.745347015 -4.057296075 -5.424079760 0.088300654 -0.012317271 38.061101293 -14.218033906 -3.898096621 -30.722212385 -0.005614075 0.170524069 4.056295406
-0.070397753 88.515865761 0.052455265 -1.308760403 -4.313210690 -1.395249755 -0.177555350 -0.070875093 4.404657548 0.405395349 -0.070545060 2.495529761 -0.361909222 2.409777496 4.041866048 -0.607329742 0.292003825 0.778284397 6.510756739 -9.830984676 5.623900439 1.461303515 -21.788460865 -12.698037453 -12.487392908 8.540583309 -5.311043411 38.534914583 39.946186013 -40.664351231 179.932886372 63.888687539 179.688730121 -12.358808880 4.311016984 -5.836868169 -0.000977674 0.002529406 -0.003159856 -5.173708232 0.861147353 18.880117821 13.252461183 5.986705401 2.479004531 -83.404149679 -68.503046859 22.485436913 179.320542502 -46.481012710 -179.447294624 9.257994864 10.398801159 -8.067445379 0.004082502 0.000535238 0.000591878 -4.994591455 -0.859095945 -19.448302452 -16.114424222 -2.933341026 -24.560764172 -0.397610423 0.168314646 37.324037245 17.585394715 7.191603853 -7.838907469 0.001811264 -0.077331952 2.370753158 13.728220270 -4.025385826 -5.382411664 0.088791096 -0.014152100 38.026190503 -14.211134253 -3.895257551 -30.709561517 -0.005614075 0.170524069 4.056295406
-0.060859555 88.523234301 0.051580281 -1.299327792 -4.341902121 -1.408158898 -0.178296959 -0.073460433 4.394352921 0.406694616 -0.072588354 2.486755063 -0.365768196 2.393346090 4.061920763 -0.610102222 0.288888333 0.788121163 6.492733238 -9.830002791 5.664505637 1.448312579 -21.777543271 -12.699587079 -12.469053993 8.539062776 -5.339902038 38.564313978 40.042759198 -40.604648100 179.826692134 63.948151471 179.604555654 -12.371293314 4.302550729 -5.813822656 -0.000971456 0.002466105 -0.003227601 -5.176618222 0.861344255 18.872413841 13.262768601 6.012209898 2.453167166 -83.405895587 -68.488857243 22.502390734 179.305147198 -46.496749165 -179.443749301 9.270353332 10.397959788 -8.027108108 0.004138109 0.000504490 0.000526474 -4.992251866 -0.859005886 -19.454645427 -16.129706780 -2.901682371 -24.540411397 -0.395048696 0.167894163 37.286258983 17.592033754 7.184728144 -7.818415983 0.001811264 -0.077331952 2.370753158 13.711179104 -3.989912254 -5.346970476 0.089750067 -0.016205506 37.997397602 -14.202611531 -3.895875105 -30.696397927 -0.005614075 0.170524069 4.056295406
-0.049942849 88.530139959 0.047582181 -1.289827920 -4.370456088 -1.420980169 -0.180362193 -0.075545287 4.384471898 0.408495944 -0.074406467 2.478146420 -0.369635454 2.378387197 4.084822724 -0.612117722 0.286208960 0.797884338 6.473412514 -9.828642537 5.698248309 1.434616350 -21.763533458 -12.701682124 -12.451157709 8.535585690 -5.367709414 38.600822416 40.142878447 -40.539241439 179.727001005 64.008104567 179.525869228 -12.374492939 4.296009350 -5.783593365 -0.000966076 0.002408526 -0.003284640 -5.179544160 0.861505870 18.863904667 13.274438184 6.037395026 2.426136117 -83.404776738 -68.475416736 22.515730522 179.293027166 -46.513691865 -179.443723120 9.282942917 10.395990948 -7.983947880 0.004201102 0.000473926 0.000472045 -4.990508877 -0.858973990 -19.459947598 -16.145203243 -2.868255598 -24.521789552 -0.393589345 0.168218226 37.247360228 17.600839237 7.175330717 -7.795768823 0.001811264 -0.077331952 2.370753158 13.694292132 -3.951690347 -5.316863652 0.090750265 -0.018137786 37.974368048 -14.192674362 -3.899188565 -30.683158119 -0.005614075 0.170524069 4.056295406
-0.037999192 88.536470011 0.041014716 -1.280146399 -4.399240271 -1.433942050 -0.183663686 -0.077122183 4.375406878 0.410829317 -0.075992689 2.469892493 -0.373513186 2.364897522 4.110168183 -0.613321015 0.283965267 0.807402352 6.453525870 -9.827430749 5.724527833 1.420650166 -21.747196907 -12.704088538 -12.433909502 8.530207399 -5.393991984 38.642296094 40.245423183 -40.468156356 179.635951071 64.068495435 179.454330496 -12.368425857 4.291288234 -5.746877444 -0.000961252 0.002356975 -0.003330908 -5.182414797 0.861625694 18.854740099 13.286538879 6.062136131 2.398843296 -83.397428015 -68.463747768 22.523969922 179.284172832 -46.532170824 -179.447085332 9.296705106 10.393843511 -7.938978809 0.004270489 0.000443648 0.000431103 -4.989397332 -0.858998644 -19.464060040 -16.160255255 -2.833863205 -24.505069155 -0.394010311 0.169780292 37.208464621 17.611643195 7.164726439 -7.771492698 0.001811264 -0.077331952 2.370753158 13.677644288 -3.911582377 -5.291073670 0.091355308 -0.019607549 37.956591647 -14.181548165 -3.904406014 -30.670269142 -0.005614075 0.170524069 4.056295406
-0.025404180 88.542127312 0.032503517 -1.270181481 -4.428589838 -1.447253407 -0.188097441 -0.078197500 4.367507251 0.413705208 -0.077346564 2.462160807 -0.377407233 2.352826558 4.137511586 -0.613672511 0.282145091 0.816512378 6.433819582 -9.826890018 5.742905658 1.406840721 -21.729362180 -12.706564136 -12.417496926 8.523010072 -5.418285883 38.686461806 40.349222176 -40.391597563 179.555486186 64.129287416 179.391437447 -12.353288181 4.288277706 -5.704501456 -0.000956706 0.002311593 -0.003366599 -5.185155554 0.861697857 18.845093062 13.298144720 6.086342614 2.372232013 -83.380686695 -68.454803924 22.525772390 179.278522749 -46.552452798 -179.453634081 9.312511129 10.392454616 -7.893209773 0.004345083 0.000413668 0.000405855 -4.988937164 -0.859076925 -19.466862310 -16.174210352 -2.799307562 -24.490369430 -0.397048308 0.173043059 37.170691304 17.624246913 7.154214763 -7.746174693 0.001811264 -0.077331952 2.370753158 13.661337033 -3.870477146 -5.268494593 0.091134108 -0.020281961 37.943423288 -14.169470640 -3.910728724 -30.658137945 -0.005614075 0.170524069 4.056295406
-0.012547692 88.547032324 0.022727835 -1.259848689 -4.458792765 -1.461095078 -0.193545506 -0.078791012 4.361070022 0.417113903 -0.078473671 2.455093847 -0.381326408 2.342080193 4.166375441 -0.613149296 0.280725274 0.825063907 6.415035317 -9.827522291 5.753114729 1.393595072 -21.710897879 -12.708865636 -12.402086542 8.514101033 -5.440147213 38.730978613 40.453075068 -40.309955848 179.487309394 64.190449294 179.338490598 -12.329449054 4.286867892 -5.657401617 -0.000952168 0.002272361 -0.003392152 -5.187690383 0.861717290 18.835155673 13.308361442 6.109957000 2.347232140 -83.351685587 -68.449441446 22.519985653 179.275966988 -46.574730311 -179.463102261 9.331133114 10.392721259 -7.847620027 0.004423533 0.000383914 0.000398139 -4.989132950 -0.859204668 -19.468265526 -16.186440268 -2.765371505 -24.477757404 -0.403374127 0.178423969 37.135126331 17.638424511 7.145041046 -7.720447886 0.001811264 -0.077331952 2.370753158 13.645487765 -3.829268723 -5.247970669 0.089675016 -0.019846757 37.934106900 -14.156686930 -3.917375548 -30.647141352 -0.005614075 0.170524069 4.056295406
0.000176196 88.551124707 0.012400920 -1.249084964 -4.490076523 -1.475612252 -0.199878926 -0.078935114 4.356331880 0.421025368 -0.079385254 2.448805848 -0.385281725 2.332525446 4.196260872 -0.611745792 0.279672669 0.832921995 6.397890689 -9.829792951 5.755064764 1.381290226 -21.692688629 -12.710755778 -12.387821323 8.503610611 -5.459162024 38.773501607 40.555774534 -40.223808957 179.432842162 64.251945746 179.296561940 -12.297441716 4.286953444 -5.606601529 -0.000947389 0.002239105 -0.003408233 -5.189943697 0.861679873 18.825134790 13.316352181 6.132953231 2.324735600 -83.307937527 -68.448393219 22.505670439 179.276351416 -46.599112714 -179.475164828 9.353217814 10.395473167 -7.803135781 0.004504350 0.000354236 0.000409372 -4.989973838 -0.859376580 -19.468214686 -16.196358678 -2.732799552 -24.467248070 -0.413569688 0.186282322 37.102794301 17.653927111 7.138359100 -7.694975756 0.001811264 -0.077331952 2.370753158 13.630228454 -3.788835187 -5.228335848 0.086599311 -0.018015779 37.927801812 -14.143444512 -3.923606622 -30.637616795 -0.005614075 0.170524069 4.056295406
0.012379399 88.554364435 0.002249540 -1.237852223 -4.522596506 -1.490907874 -0.206960872 -0.078673737 4.353462890 0.425389660 -0.080097709 2.443380344 -0.389285555 2.323996192 4.226658593 -0.609474010 0.278945384 0.839970117 6.383060395 -9.834115867 5.748843270 1.370263546 -21.675610665 -12.712010343 -12.374818620 8.491689550 -5.474955744 38.811746316 40.656128439 -40.133916687 179.393190345 64.313727961 179.266469348 -12.257950810 4.288437937 -5.553187928 -0.000942150 0.002211509 -0.003415709 -5.191842308 0.861582558 18.815247153 13.321361612 6.155334209 2.305572788 -83.247409939 -68.452246049 22.482123713 179.279482775 -46.625619520 -179.489447334 9.379263631 10.401447601 -7.760608343 0.004585942 0.000324415 0.000440510 -4.991433852 -0.859586384 -19.466690142 -16.203437829 -2.702280180 -24.458805589 -0.428107687 0.196908268 37.074630995 17.670487592 7.135196061 -7.670435734 0.001811264 -0.077331952 2.370753158 13.615703571 -3.750017908 -5.208453116 0.081573577 -0.014539812 37.923610713 -14.129987870 -3.928745699 -30.629853999 -0.005614075 0.170524069 4.056295406
0.023689833 88.556732401 -0.007006822 -1.226140224 -4.556426513 -1.507037218 -0.214649900 -0.078061000 4.352561988 0.430137873 -0.080631943 2.438868557 -0.393350717 2.316299738 4.257060051 -0.606363400 0.278494238 0.846112558 6.371158356 -9.840839826 5.734712307 1.360804218 -21.660507662 -12.712424884 -12.363168719 8.478506018 -5.487201829 38.843552223 40.752981410 -40.041210200 179.369117666 64.375724816 179.248757013 -12.211796254 4.291237731 -5.498285046 -0.000936264 0.002189128 -0.003415622 -5.193317344 0.861423464 18.805714230 13.322737923 6.177128632 2.290490497 -83.168588481 -68.461421952 22.448896761 179.285134431 -46.654176184 -179.505535514 9.409601572 10.411266682 -7.720794444 0.004666654 0.000294173 0.000492012 -4.993472565 -0.859826983 -19.463708217 -16.207223580 -2.674429590 -24.452345518 -0.447334532 0.210513865 37.051457862 17.687825913 7.136420549 -7.647502297 0.001811264 -0.077331952 2.370753158 13.602067442 -3.713601844 -5.187252583 0.074320617 -0.009214498 37.920608412 -14.116553062 -3.932200486 -30.624087755 -0.005614075 0.170524069 4.056295406
0.033761024 88.558230519 -0.014676581 -1.213968675 -4.591551573 -1.524003807 -0.222803229 -0.077159608 4.353654381 0.435183595 -0.081012614 2.435288635 -0.397489533 2.309224045 4.286968470 -0.602460280 0.278264393 0.851276288 6.362721287 -9.850236775 5.713101122 1.353145995 -21.648167395 -12.711820968 -12.352934032 8.464242302 -5.495629437 38.866943828 40.845235217 -39.946775788 179.361027274 64.437834995 179.243682298 -12.159914052 4.295285114 -5.443028183 -0.000929590 0.002171407 -0.003409153 -5.194306077 0.861201943 18.796756899 13.319952066 6.198387185 2.280131909 -83.070528959 -68.476164084 22.405808570 179.293052651 -46.684612460 -179.522985681 9.444380685 10.425417774 -7.684339243 0.004744801 0.000263191 0.000563825 -4.996036119 -0.860090660 -19.459320932 -16.207348395 -2.649777331 -24.447738069 -0.471457172 0.227226297 37.033959187 17.705654956 7.142715135 -7.626829992 0.001811264 -0.077331952 2.370753158 13.589481172 -3.680297339 -5.163767327 0.064628599 -0.001887134 37.917870686 -14.103362318 -3.933480402 -30.620491967 -0.005614075 0.170524069 4.056295406
0.042281056 88.558881302 -0.020115937 -1.201388509 -4.627863301 -1.541756773 -0.231279984 -0.076039054 4.356690912 0.440424846 -0.081267286 2.432625782 -0.401712867 2.302545426 4.315909525 -0.597826890 0.278197112 0.855412271 6.358194072 -9.862492199 5.684594864 1.347461394 -21.639299823 -12.710051774 -12.344148910 8.449091246 -5.500029921 38.880187693 40.931867486 -39.851833527 179.368951773 64.499920353 179.251209280 -12.103334525 4.300530581 -5.388537159 -0.000922033 0.002157703 -0.003397585 -5.194753638 0.860918612 18.788590095 13.312613798 6.219178115 2.275019141 -82.952896834 -68.496527755 22.352954859 179.302963301 -46.716663382 -179.541335709 9.483558439 10.444237360 -7.651762490 0.004818712 0.000231115 0.000655377 -4.999058571 -0.860369283 -19.453614860 -16.203541924 -2.628754142 -24.444812380 -0.500534219 0.247083239 37.022662765 17.723686769 7.154553941 -7.609036788 0.001811264 -0.077331952 2.370753158 13.578109323 -3.650723858 -5.137166087 0.052358227 0.007537823 37.914502541 -14.090618831 -3.932211295 -30.619175106 -0.005614075 0.170524069 4.056295406
0.048980645 88.558726944 -0.022747535 -1.188482304 -4.665157948 -1.560189761 -0.239944313 -0.074773654 4.361549412 0.445746453 -0.081425512 2.430833251 -0.406029170 2.296036508 4.343441413 -0.592540054 0.278231598 0.858496185 6.357917309 -9.877697914 5.649919695 1.343857505 -21.634517147 -12.707006858 -12.336820100 8.433252513 -5.500262000 38.881843929 41.011948309 -39.757711485 179.392551928 64.561800788 179.271009082 -12.043158486 4.306944143 -5.335890256 -0.000913550 0.002147304 -0.003382267 -5.194614555 0.860575357 18.781417551 13.300484094 6.239582292 2.275538791 -82.815993699 -68.522376850 22.290712974 179.314578807 -46.749972865 -179.560116356 9.526896354 10.467898792 -7.623448202 0.004886769 0.000197581 0.000765584 -5.002463537 -0.860654531 -19.446709127 -16.195638887 -2.611682290 -24.443361777 -0.534471585 0.270030359 37.017924785 17.741639078 7.172186130 -7.594688176 0.001811264 -0.077331952 2.370753158 13.568116498 -3.625396038 -5.106782000 0.037447806 0.019094695 37.909665309 -14.078501943 -3.928146706 -30.620177245 -0.005614075 0.170524069 4.056295406
0.053640138 88.557827920 -0.022077411 -1.175363799 -4.703137214 -1.579141397 -0.248668292 -0.073440465 4.368038007 0.451022792 -0.081517873 2.429834189 -0.410443563 2.289474240 4.369164057 -0.586689519 0.278306870 0.860528544 6.362117345 -9.895847489 5.609924679 1.342373502 -21.634316331 -12.702615953 -12.330927814 8.416928751 -5.496255451 38.870810686 41.084654444 -39.665816274 179.431124090 64.623250772 179.302467022 -11.980531947 4.314515594 -5.286099323 -0.000904151 0.002139457 -0.003364574 -5.193854082 0.860175304 18.775426766 13.283483607 6.259687825 2.281930848 -82.660770118 -68.553385754 22.219742655 179.327605251 -46.784099851 -179.578862684 9.573961062 10.496404212 -7.599638109 0.004947444 0.000162225 0.000892866 -5.006166081 -0.860938124 -19.438752607 -16.183584075 -2.598768643 -24.443149993 -0.573022651 0.295920830 37.019919536 17.759241864 7.195625836 -7.584282381 0.001811264 -0.077331952 2.370753158 13.559664007 -3.604712381 -5.072136706 0.019916146 0.032754071 37.902602047 -14.067162914 -3.921175421 -30.623468774 -0.005614075 0.170524069 4.056295406
0.056095257 88.556261150 -0.017709806 -1.162176523 -4.741411820 -1.598397345 -0.257334568 -0.072117134 4.375900289 0.456120854 -0.081575002 2.429524273 -0.414956990 2.282647746 4.392727245 -0.580375988 0.278363625 0.861534203 6.370899056 -9.916834391 5.565560929 1.342979952 -21.639064549 -12.696851692 -12.326427390 8.400321766 -5.488013264 38.846360304 41.149280890 -39.577600910 179.483616204 64.683997663 179.344696435 -11.916619971 4.323253745 -5.240086618 -0.000893902 0.002133388 -0.003345864 -5.192449297 0.859722764 18.770784319 13.261696953 6.279584367 2.294281257 -82.488824212 -68.589046738 22.140982413 179.341749461 -46.818526855 -179.597125323 9.624130849 10.529580838 -7.580429000 0.004999336 0.000124700 0.001035186 -5.010074814 -0.861212045 -19.429920391 -16.167434385 -2.590100669 -24.443918254 -0.615792826 0.324516791 37.028634340 17.776243787 7.224648896 -7.578237089 0.001811264 -0.077331952 2.370753158 13.552906720 -3.588946872 -5.032959262 -0.000136674 0.048421936 37.892660783 -14.056721471 -3.911325140 -30.628950926 -0.005614075 0.170524069 4.056295406
0.056241452 88.554117763 -0.009359447 -1.149091530 -4.779507786 -1.617693922 -0.265838658 -0.070879740 4.384822222 0.460903527 -0.081626615 2.429775077 -0.419565468 2.275365810 4.413837514 -0.573708899 0.278346046 0.861561289 6.384241608 -9.940452897 5.517858510 1.345579918 -21.648987903 -12.689731157 -12.323251494 8.383628761 -5.475612168 38.808165993 41.205249729 -39.494530997 179.548652130 64.743721781 179.396558951 -11.852580317 4.333184653 -5.198663981 -0.000882922 0.002128332 -0.003327443 -5.190389921 0.859223146 18.767631654 13.235372693 6.299357239 2.312518336 -82.302385402 -68.628682512 22.055641029 179.356725941 -46.852670724 -179.614481332 9.676607550 10.567081751 -7.565774001 0.005041206 0.000084694 0.001190085 -5.014094143 -0.861468757 -19.420409605 -16.147357904 -2.585645444 -24.445393135 -0.662248168 0.355492634 37.043869944 17.792418203 7.258796521 -7.576877995 0.001811264 -0.077331952 2.370753158 13.547990202 -3.578243694 -4.989199447 -0.022530609 0.065940488 37.879315174 -14.047263305 -3.898762209 -30.636458136 -0.005614075 0.170524069 4.056295406
0.054036744 88.551500535 0.003139002 -1.136304295 -4.816875255 -1.636723188 -0.274090858 -0.069800662 4.394440616 0.465233048 -0.081700586 2.430438068 -0.424259467 2.267463803 4.432263602 -0.566804012 0.278203492 0.860679562 6.401997342 -9.966401734 5.467901671 1.350011847 -21.664163723 -12.681316219 -12.321312813 8.367038759 -5.459201540 38.756318112 41.252116238 -39.418050299 179.624563828 64.802058209 179.456690890 -11.789537492 4.344348940 -5.162514827 -0.000871384 0.002123555 -0.003310524 -5.187678845 0.858682849 18.766081425 13.204918986 6.319081545 2.336413144 -82.104282781 -68.671463538 21.965183489 179.372263489 -46.885895356 -179.630544403 9.730433529 10.608391190 -7.555487668 0.005072007 0.000041944 0.001354742 -5.018126622 -0.861701405 -19.410434676 -16.123630142 -2.585251726 -24.447295003 -0.711727626 0.388440055 37.065246371 17.807568528 7.297385826 -7.580429509 0.001811264 -0.077331952 2.370753158 13.545048157 -3.572615183 -4.941035158 -0.047008898 0.085090636 37.862182196 -14.038838640 -3.883787486 -30.645762270 -0.005614075 0.170524069 4.056295406
0.049503000 88.548521045 0.019824585 -1.124030801 -4.852899686 -1.655139416 -0.282017719 -0.068946550 4.404352955 0.468974517 -0.081822070 2.431349149 -0.429023443 2.258809848 4.447840363 -0.559780853 0.277892055 0.858978266 6.423893863 -9.994290287 5.416802994 1.356054162 -21.684516642 -12.671712647 -12.320507171 8.350729272 -5.439000695 38.691329397 41.289572324 -39.349546759 179.709430805 64.858600198 179.523535311 -11.728557869 4.356798343 -5.132179399 -0.000859508 0.002118377 -0.003296196 -5.184332357 0.858109142 18.766214511 13.170895005 6.338816456 2.365583817 -81.897897738 -68.716429493 21.871310553 179.388111358 -46.917526071 -179.644974165 9.784513344 10.652834312 -7.549254689 0.005090908 -0.000003750 0.001526038 -5.022075343 -0.861903995 -19.400222181 -16.096627602 -2.588655051 -24.449346855 -0.763458394 0.422874790 37.092214011 17.821532721 7.339526898 -7.589007859 0.001811264 -0.077331952 2.370753158 13.544200204 -3.571943048 -4.888873738 -0.073243131 0.105596166 37.841036484 -14.031461958 -3.866828500 -30.656578642 -0.005614075 0.170524069 4.056295406
0.042725588 88.545296639 0.040606953 -1.112502914 -4.886915116 -1.672566803 -0.289563048 -0.068376429 4.414128316 0.471999390 -0.082012726 2.432333608 -0.433835553 2.249310091 4.460471049 -0.552760081 0.277375918 0.856563517 6.449539331 -10.023647213 5.365677066 1.363431462 -21.709818563 -12.661068018 -12.320716985 8.334863297 -5.415294629 38.614128801 41.317447416 -39.290319944 179.801126071 64.912903999 179.595379148 -11.670626430 4.370591660 -5.108043645 -0.000847559 0.002112193 -0.003285388 -5.180380051 0.857510012 18.768077759 13.133998324 6.358599867 2.399503760 -81.687100670 -68.762514158 21.775931165 179.404044802 -46.946865302 -179.657484369 9.837639541 10.699591227 -7.546641864 0.005097319 -0.000052511 0.001700620 -5.025846305 -0.862071542 -19.390005376 -16.066818933 -2.595485733 -24.451283285 -0.816573781 0.458245015 37.124069539 17.834186678 7.384145869 -7.602616804 0.001811264 -0.077331952 2.370753158 13.545549913 -3.575982837 -4.833347186 -0.100839954 0.127129482 37.815820976 -14.025112897 -3.848428160 -30.668573719 -0.005614075 0.170524069 4.056295406
0.033851442 88.541947269 0.065266611 -1.101963129 -4.918219207 -1.688608228 -0.296688424 -0.068140007 4.423319137 0.474188871 -0.082290037 2.433211364 -0.438667561 2.238912902 4.470127922 -0.545860835 0.276628498 0.853555296 6.478430892 -10.053931176 5.315614276 1.371822137 -21.739692542 -12.649568482 -12.321814977 8.319586725 -5.388428320 38.526043904 41.335706995 -39.241550815 179.897367677 64.964494935 179.670394720 -11.616625710 4.385790266 -5.090331961 -0.000835838 0.002104496 -0.003278850 -5.175864420 0.856894012 18.771682523 13.095048556 6.378443640 2.437513516 -81.476172044 -68.808572915 21.681127057 179.419869850 -46.973209227 -179.667849728 9.888521927 10.747715054 -7.547112981 0.005090901 -0.000104376 0.001874986 -5.029350713 -0.862200195 -19.380018576 -16.034753960 -2.605279584 -24.452859307 -0.870133016 0.493941357 37.159976033 17.845446384 7.430013296 -7.621146088 0.001811264 -0.077331952 2.370753158 13.549183055 -3.584371526 -4.775301333 -0.129349249 0.149318817 37.786653526 -14.019738281 -3.829230355 -30.681374312 -0.005614075 0.170524069 4.056295406
0.023085566 88.538592290 0.093458526 -1.092658808 -4.946089683 -1.702854874 -0.303373225 -0.068276210 4.431473501 0.475437114 -0.082666753 2.433802362 -0.443484952 2.227611918 4.476851176 -0.539198138 0.275633337 0.850084128 6.509966057 -10.084543416 5.267655350 1.380867244 -21.773620489 -12.637434485 -12.323668043 8.305026198 -5.358799694 38.428772244 41.344448929 -39.204274587 179.995774750 65.012874495 179.746684789 -11.567317426 4.402453427 -5.079103976 -0.000824676 0.002094890 -0.003277122 -5.170840148 0.856270093 18.777004031 13.054967658 6.398329616 2.478836013 -81.269708497 -68.853411979 21.589109194 179.435427187 -46.995864930 -179.675911225 9.935819553 10.796153618 -7.550046105 0.005071581 -0.000159287 0.002045563 -5.032507139 -0.862287321 -19.370491479 -16.001050916 -2.617491090 -24.453858698 -0.923142421 0.529308479 37.198986559 17.855268726 7.475776941 -7.644372725 0.001811264 -0.077331952 2.370753158 13.555165965 -3.596638036 -4.715779179 -0.158273616 0.171756729 37.753829173 -14.015255189 -3.809962835 -30.694577995 -0.005614075 0.170524069 4.056295406
0.010686068 88.535347293 0.124719002 -1.084836047 -4.969801778 -1.714896458 -0.309614161 -0.068812007 4.438147656 0.475654146 -0.083150473 2.433931987 -0.448247261 2.215447825 4.480746223 -0.532880403 0.274384720 0.846287522 6.543456799 -10.114841803 5.222767201 1.390180367 -21.810954542 -12.624915563 -12.326141195 8.291287485 -5.326851453 38.324342207 41.343897817 -39.179357302 -179.906073222 65.057528238 179.822330174 -11.523327214 4.420633571 -5.074255436 -0.000814426 0.002083104 -0.003280529 -5.165373109 0.855647437 18.783981604 13.014757376 6.418206600 2.522594816 -81.072515317 -68.895818476 21.502166143 179.450595002 -47.014167699 -179.681579732 9.978174595 10.843774327 -7.554752769 0.005039550 -0.000217082 0.002208789 -5.035243496 -0.862331556 -19.361643619 -15.966382241 -2.631508731 -24.454101571 -0.974577406 0.563658169 37.240070343 17.863650946 7.519997981 -7.671965102 0.001811264 -0.077331952 2.370753158 13.563543921 -3.612216421 -4.655998707 -0.187078955 0.194009689 37.717817808 -14.011554910 -3.791417832 -30.707764441 -0.005614075 0.170524069 4.056295406
-0.003042151 88.532321055 0.158475677 -1.078733316 -4.988646251 -1.724331837 -0.315424339 -0.069761537 4.442918433 0.474768456 -0.083743372 2.433436353 -0.452908595 2.202508830 4.481979417 -0.527007112 0.272888000 0.842306270 6.578146026 -10.144156017 5.181820644 1.399358248 -21.850931822 -12.612284363 -12.329101443 8.278454395 -5.293061929 38.215064474 41.334397510 -39.167476563 -179.810575252 65.097934297 179.895438823 -11.485132831 4.440371731 -5.075523140 -0.000805453 0.002069003 -0.003289162 -5.159539105 0.855035274 18.792519714 12.975474397 6.437988464 2.567834943 -80.889487325 -68.934590519 21.422605027 179.465290713 -47.027498008 -179.684837825 10.014247235 10.889391649 -7.560498538 0.004995264 -0.000277499 0.002361201 -5.037498784 -0.862332826 -19.353679048 -15.931459296 -2.646672039 -24.453450843 -1.023404798 0.596283806 37.282140618 17.870628756 7.561189562 -7.703489824 0.001811264 -0.077331952 2.370753158 13.574339464 -3.630461395 -4.597325584 -0.215205969 0.215628490 37.679257037 -14.008507615 -3.774430887 -30.720507308 -0.005614075 0.170524069 4.056295406
-0.017754904 88.529612685 0.194060402 -1.074575048 -5.001947541 -1.730779701 -0.320831895 -0.071125580 4.445395264 0.472729159 -0.084442077 2.432167327 -0.457418359 2.188929802 4.480772323 -0.521666713 0.271159630 0.838280692 6.613226031 -10.171803472 5.145570500 1.407991871 -21.892692232 -12.599830047 -12.332421556 8.266588256 -5.257935204 38.103475301 41.316401969 -39.169106739 -179.720047382 65.133572319 179.964195122 -11.453056071 4.461693308 -5.082493787 -0.000798123 0.002052594 -0.003302879 -5.153422354 0.854442716 18.802489866 12.938203827 6.457553490 2.613545700 -80.725480926 -68.968566506 21.352686344 179.479471480 -47.035297786 -179.685739702 10.042750659 10.931796544 -7.566524396 0.004939433 -0.000340165 0.002499511 -5.039224549 -0.862292325 -19.346781397 -15.897016366 -2.662289979 -24.451817326 -1.068605073 0.626476028 37.324083236 17.876273224 7.597856595 -7.738421149 0.001811264 -0.077331952 2.370753158 13.587550591 -3.650665788 -4.541241301 -0.242082357 0.236159192 37.638940129 -14.005967525 -3.759858409 -30.732386278 -0.005614075 0.170524069 4.056295406
-0.033077228 88.527309029 0.230724686 -1.072565351 -5.009081604 -1.733889091 -0.325878233 -0.072891379 4.445231479 0.469507702 -0.085237703 2.429997169 -0.461722150 2.174890094 4.477394698 -0.516934796 0.269226889 0.834346921 6.647858429 -10.197105620 5.114638535 1.415677743 -21.935298874 -12.587851263 -12.335983565 8.255727965 -5.221990699 37.992273148 41.290464590 -39.184508789 -179.636662493 65.163932659 -179.973091902 -11.427258584 4.484604279 -5.094616500 -0.000792797 0.002034027 -0.003321310 -5.147113786 0.853878582 18.813733260 12.904031664 6.476745030 2.658684993 -80.585180812 -68.996652957 21.294554631 179.493133493 -47.037085556 -179.684409189 10.062485265 10.969787121 -7.572068431 0.004873006 -0.000404608 0.002620692 -5.040386035 -0.862212462 -19.341109432 -15.863794289 -2.677660181 -24.449163215 -1.109194105 0.653539316 37.364785135 17.880686584 7.628535695 -7.776152785 0.001811264 -0.077331952 2.370753158 13.603148815 -3.672079518 -4.489307389 -0.267135490 0.255154277 37.597799081 -14.003778366 -3.748554460 -30.742998835 -0.005614075 0.170524069 4.056295406
-0.048612698 88.525482407 0.267657340 -1.072882012 -5.009493003 -1.733349445 -0.330615916 -0.075032820 4.442134607 0.465099052 -0.086116026 2.426822653 -0.465762798 2.160610089 4.472156353 -0.512872575 0.267127312 0.830633325 6.681195090 -10.219404241 5.089499670 1.422029058 -21.977760575 -12.576648855 -12.339681946 8.245890593 -5.185752514 37.884250403 41.257226124 -39.213724735 -179.562393095 65.188525722 -179.917942851 -11.407741667 4.509087971 -5.111218685 -0.000789816 0.002013591 -0.003343861 -5.140709168 0.853351230 18.826064168 12.874016960 6.495373493 2.702204494 -80.472965477 -69.017850357 21.250167539 179.506310015 -47.032470068 -179.681035864 10.072371219 11.002199740 -7.576387307 0.004797152 -0.000470256 0.002722041 -5.040962995 -0.862096788 -19.336793214 -15.832524067 -2.692088507 -24.445503787 -1.144244112 0.676809169 37.403161877 17.883997165 7.651834225 -7.816011724 0.001811264 -0.077331952 2.370753158 13.621077112 -3.693929577 -4.443126466 -0.289805322 0.272183689 37.556882945 -14.001778905 -3.741347307 -30.751971380 -0.005614075 0.170524069 4.056295406
-0.063953304 88.524188741 0.304003886 -1.075670980 -5.002710810 -1.728899924 -0.335106277 -0.077510971 4.435875404 0.459522340 -0.087057819 2.422568575 -0.469481521 2.146346551 4.465398120 -0.509525730 0.264907839 0.827257156 6.712399483 -10.238077393 5.070471768 1.426686454 -22.019055982 -12.566518495 -12.343426375 8.237072521 -5.149738732 37.782222057 41.217401300 -39.256576667 -179.498958751 65.206891313 -179.871666116 -11.394350018 4.535102450 -5.131524832 -0.000789496 0.001991712 -0.003369734 -5.134307116 0.852868401 18.839273941 12.849164369 6.513219619 2.743075033 -80.392776171 -69.031276576 21.221226421 179.519068231 -47.021162073 -179.675869376 10.071478531 11.027939740 -7.578777060 0.004713229 -0.000536448 0.002801252 -5.040950133 -0.861949882 -19.333930952 -15.803910764 -2.704908461 -24.440907220 -1.172903485 0.695669418 37.438183547 17.886353689 7.666467463 -7.857273769 0.001811264 -0.077331952 2.370753158 13.641247853 -3.715440539 -4.404300973 -0.309557265 0.286845423 37.517331766 -13.999808368 -3.739016239 -30.758969317 -0.005614075 0.170524069 4.056295406
-0.078689658 88.523466104 0.338887255 -1.081041501 -4.988362947 -1.720337730 -0.339416825 -0.080274965 4.426295387 0.452820934 -0.088039307 2.417190544 -0.472819170 2.132386887 4.457482151 -0.506923613 0.262623699 0.824321493 6.740667868 -10.252554635 5.057709288 1.429328111 -22.058158622 -12.557743428 -12.347144004 8.229251075 -5.114450961 37.688953289 41.171764271 -39.312670117 -179.447779797 65.218607926 -179.835321295 -11.386779341 4.562578576 -5.154677778 -0.000792116 0.001968942 -0.003397946 -5.128007029 0.852437072 18.853135565 12.830397789 6.530038958 2.780311603 -80.347994196 -69.036187578 21.209111839 179.531504999 -47.002983941 -179.669212115 10.059053915 11.046010961 -7.578592778 0.004622760 -0.000602441 0.002856465 -5.040357185 -0.861777223 -19.332586640 -15.778617990 -2.715499916 -24.435492525 -1.194415270 0.709569182 37.468898446 17.887919171 7.671293053 -7.899180318 0.001811264 -0.077331952 2.370753158 13.663540874 -3.735855071 -4.374390564 -0.325894783 0.298775355 37.480346666 -13.997711581 -3.742269182 -30.763705783 -0.005614075 0.170524069 4.056295406
-0.092421264 88.523333749 0.371429281 -1.089062048 -4.966188583 -1.707525209 -0.343618488 -0.083263203 4.413312663 0.445061956 -0.089032758 2.410676998 -0.475717516 2.119042461 4.448781787 -0.505078851 0.260337053 0.821912589 6.765249768 -10.262331252 5.051200964 1.429678893 -22.094062315 -12.550587463 -12.350781172 8.222386588 -5.080364355 37.607087917 41.121133032 -39.381401554 -179.409938857 65.223301846 -179.809689165 -11.384587591 4.591418729 -5.179761884 -0.000797909 0.001945941 -0.003427357 -5.121907003 0.852063319 18.867408640 12.818535744 6.545567384 2.812997343 -80.341331461 -69.031995226 21.214827480 179.543741629 -46.977876854 -179.661410413 10.034543768 11.055543258 -7.575266781 0.004527397 -0.000667428 0.002886317 -5.039208614 -0.861585042 -19.332788516 -15.757253236 -2.723306654 -24.429425660 -1.208134034 0.718038918 37.494454167 17.888864692 7.665341972 -7.940955943 0.001811264 -0.077331952 2.370753158 13.687801878 -3.754453945 -4.354869173 -0.338371403 0.307656043 37.447156799 -13.995343687 -3.751721613 -30.765948773 -0.005614075 0.170524069 4.056295406
-0.104766616 88.523791623 0.400772434 -1.099757185 -4.936048284 -1.690395519 -0.347782801 -0.086404848 4.396925906 0.436335219 -0.090007175 2.403050366 -0.478120547 2.106641117 4.439671277 -0.503987354 0.258115437 0.820097648 6.785467154 -10.266981136 5.050771610 1.427518345 -22.125806294 -12.545288412 -12.354304541 8.216424855 -5.047918331 37.539079637 41.066352976 -39.461969672 -179.386151481 65.220655984 -179.795249308 -11.387209596 4.621496202 -5.205827575 -0.000807057 0.001923467 -0.003456697 -5.116101764 0.851752197 18.881844684 12.814269138 6.559527471 2.840305938 -80.374738878 -69.018282075 21.238955766 179.555917861 -46.945905392 -179.652844547 9.997612700 11.055817229 -7.568324961 0.004428880 -0.000730545 0.002889971 -5.037542954 -0.861380159 -19.334528400 -15.740354304 -2.727852251 -24.422913978 -1.213540917 0.720704978 37.514115754 17.889363284 7.647845422 -7.981826293 0.001811264 -0.077331952 2.370753158 13.713841407 -3.770575042 -4.347082887 -0.346601898 0.313224263 37.418984098 -13.992574354 -3.767877251 -30.765526493 -0.005614075 0.170524069 4.056295406
-0.115372861 88.524820391 0.426101288 -1.113105482 -4.897931642 -1.668956701 -0.351979089 -0.089621566 4.377216369 0.426751644 -0.090929083 2.394367364 -0.479975748 2.095519102 4.430515583 -0.503628714 0.256030034 0.818923124 6.800731844 -10.266168083 5.056088033 1.422687312 -22.152499417 -12.542052070 -12.357701584 8.211299874 -5.017508217 37.487127857 41.008279835 -39.553390194 -179.376746999 65.210418300 -179.792166339 -11.393974651 4.652655229 -5.231916607 -0.000819682 0.001902350 -0.003484606 -5.110680684 0.851507641 18.896192607 12.818141928 6.571635493 2.861521866 -80.449336569 -68.994813053 21.281627976 179.568185244 -46.907259367 -179.643917806 9.948157188 11.046285457 -7.557400949 0.004329003 -0.000790898 0.002867141 -5.035411789 -0.861169804 -19.337761919 -15.728377057 -2.728753878 -24.416199253 -1.210256617 0.717302113 37.527280796 17.889584163 7.618257147 -8.021035835 0.001811264 -0.077331952 2.370753158 13.741434653 -3.783630896 -4.352209756 -0.350272339 0.315277142 37.397006900 -13.989291405 -3.791111025 -30.762330875 -0.005614075 0.170524069 4.056295406
-0.123924781 88.526381960 0.446663170 -1.129038531 -4.851962175 -1.643294025 -0.356271733 -0.092829477 4.354347870 0.416441160 -0.091763395 2.384718406 -0.481235322 2.086012578 4.421660542 -0.503966995 0.254153821 0.818413559 6.810560640 -10.259655234 5.066668942 1.415093037 -22.173342858 -12.541046904 -12.360980459 8.206936817 -4.989477998 37.453119792 40.947762272 -39.654513808 -179.381660342 65.192409681 -179.800285347 -11.404126668 4.684711622 -5.257087466 -0.000835842 0.001883474 -0.003509668 -5.105725907 0.851332380 18.910204256 12.830535212 6.581608804 2.876058043 -80.565368949 -68.961543972 21.342510940 179.580700147 -46.862252833 -179.635044958 9.886314012 11.026589664 -7.542247868 0.004229570 -0.000847572 0.002818096 -5.032878423 -0.860961441 -19.342409600 -15.721684675 -2.725733614 -24.409549592 -1.198052107 0.707683385 37.533491414 17.889687472 7.576270823 -8.057864956 0.001811264 -0.077331952 2.370753158 13.770322355 -3.793124329 -4.371222700 -0.349148811 0.313676759 37.382323670 -13.985403834 -3.821654740 -30.756319246 -0.005614075 0.170524069 4.056295406
-0.130152899 88.528420496 0.461787487 -1.147441134 -4.798399350 -1.613570545 -0.360717577 -0.095941255 4.328564742 0.405550155 -0.092474322 2.374226131 -0.481857332 2.078448946 4.413423632 -0.504951889 0.252559641 0.818571002 6.814587830 -10.247312462 5.081898636 1.404712608 -22.187650699 -12.542399530 -12.364169241 8.203255145 -4.964114345 37.438580257 40.885624485 -39.764046910 -179.400435239 65.166531090 -179.819136880 -11.416846360 4.717453992 -5.280440255 -0.000855528 0.001867751 -0.003530450 -5.101310647 0.851227886 18.923639876 12.851655107 6.589173336 2.883470412 -80.722186618 -68.918626726 21.420811448 179.593616631 -46.811320281 -179.626640450 9.812463275 10.996573282 -7.522747403 0.004132359 -0.000899653 0.002743659 -5.030016250 -0.860762576 -19.348358838 -15.720538617 -2.718626981 -24.403250547 -1.176856817 0.691827029 37.532443169 17.889819711 7.521832240 -8.091646006 0.001811264 -0.077331952 2.370753158 13.800212993 -3.798661814 -4.404856659 -0.343084513 0.308353200 37.375918124 -13.980844200 -3.859585873 -30.747514280 -0.005614075 0.170524069 4.056295406
-0.133840466 88.530863907 0.470903256 -1.168152634 -4.737637648 -1.580025826 -0.365363555 -0.098868334 4.300187771 0.394238534 -0.093026326 2.363043097 -0.481806738 2.073138188 4.406085559 -0.506520208 0.251318239 0.819375021 6.812574729 -10.229121494 5.101044158 1.391594672 -22.194867920 -12.546191090 -12.367314552 8.200171764 -4.941642041 37.444630401 40.822649231 -39.880574788 -179.432238797 65.132769773 -179.847951444 -11.431274906 4.750645503 -5.301140466 -0.000878660 0.001856095 -0.003545545 -5.097497689 0.851194334 18.936273361 12.881524732 6.594070980 2.883469172 -80.918255694 -68.866411066 21.515298426 179.607079431 -46.755010088 -179.619106674 9.727225928 10.956289082 -7.498915993 0.004039077 -0.000946250 0.002645189 -5.026906878 -0.860580574 -19.355466648 -15.725091442 -2.707388456 -24.397595849 -1.146764075 0.669839919 37.523990986 17.890109920 7.455146148 -8.121777882 0.001811264 -0.077331952 2.370753158 13.830786443 -3.799964215 -4.453581017 -0.332025077 0.299306074 37.378627039 -13.975570435 -3.904819844 -30.736002379 -0.005614075 0.170524069 4.056295406
-0.134829198 88.533625754 0.473554383 -1.190969379 -4.670202650 -1.542972870 -0.370244598 -0.101523155 4.269608239 0.382676443 -0.093385080 2.351348669 -0.481056302 2.070364456 4.399882895 -0.508597676 0.250496325 0.820783303 6.804416056 -10.205178637 5.123275500 1.375859384 -22.194585321 -12.552454601 -12.370479625 8.197604150 -4.922220912 37.471956326 40.759561709 -40.002586881 -179.475887061 65.091204309 -179.885683106 -11.446538493 4.784026151 -5.318441056 -0.000905087 0.001849401 -0.003553609 -5.094338126 0.851230601 18.947897177 12.919980488 6.596066591 2.875926363 -81.151193937 -68.805442723 21.624341831 179.621217278 -46.693975345 -179.612822633 9.631455843 10.906001652 -7.470907963 0.003951325 -0.000986512 0.002524546 -5.023638051 -0.860422478 -19.363563170 -15.735381672 -2.692093799 -24.392878094 -1.108033521 0.641957401 37.508152205 17.890666684 7.376677661 -8.147738835 0.001811264 -0.077331952 2.370753158 13.861699144 -3.796874649 -4.517578256 -0.316011899 0.286604539 37.391112019 -13.969567077 -3.957106066 -30.721930706 -0.005614075 0.170524069 4.056295406
-0.133023584 88.536607536 0.469412322 -1.215648228 -4.596744210 -1.502793315 -0.375381863 -0.103821402 4.237280176 0.371040754 -0.093518419 2.339345198 -0.479587363 2.070378116 4.395001929 -0.511100976 0.250154698 0.822732838 6.790142992 -10.175694990 5.147688350 1.357696593 -22.186551000 -12.561173339 -12.373741856 8.195473366 -4.905944312 37.520788292 40.697014811 -40.128503709 -179.529880716 65.042008257 -179.931041436 -11.461773125 4.817315544 -5.331702282 -0.000934591 0.001848512 -0.003553404 -5.091870363 0.851334288 18.958326834 12.966672730 6.594954447 2.860879650 -81.417831712 -68.736457692 21.745966214 179.636136768 -46.628962282 -179.608133338 9.526226602 10.846184663 -7.439015462 0.003870564 -0.001019647 0.002384054 -5.020301420 -0.860294825 -19.372455816 -15.751330842 -2.672939146 -24.389379781 -1.061090289 0.608539412 37.485106868 17.891575932 7.287148218 -8.169097237 0.001811264 -0.077331952 2.370753158 13.892590727 -3.789363252 -4.596729599 -0.295183341 0.270385936 37.413836299 -13.962845978 -4.016027988 -30.705503113 -0.005614075 0.170524069 4.056295406
-0.128393681 88.539701311 0.458285792 -1.241911008 -4.518026817 -1.459931027 -0.380781352 -0.105684167 4.203711022 0.359511368 -0.093397261 2.327253571 -0.477390456 2.073388446 4.391573896 -0.513939997 0.250346494 0.825141644 6.769922922 -10.140994080 5.173328812 1.337362306 -22.170678107 -12.572280290 -12.377189909 8.193706867 -4.892839204 37.590890910 40.635576226 -40.256705077 -179.592449770 64.985452174 -179.982530697 -11.476149044 4.850216163 -5.340408796 -0.000966884 0.001854199 -0.003543830 -5.090119420 0.851501775 18.967404801 13.021070819 6.590563968 2.838532221 -81.714294764 -68.660372448 21.877915980 179.651916969 -46.560796531 -179.605340183 9.412813267 10.777513006 -7.403665101 0.003798081 -0.001044940 0.002226445 -5.016990216 -0.860203486 -19.381933973 -15.772742891 -2.650236893 -24.387365002 -1.006520712 0.570062946 37.455195310 17.892899507 7.187526174 -8.185520107 0.001811264 -0.077331952 2.370753158 13.923091943 -3.777528719 -4.690608217 -0.269773691 0.250853111 37.447047495 -13.955446540 -4.081007238 -30.686975209 -0.005614075 0.170524069 4.056295406
-0.120976306 88.542792561 0.440127292 -1.269449788 -4.434917354 -1.414884240 -0.386432940 -0.107040007 4.169450904 0.348267452 -0.092996470 2.315308231 -0.474465765 2.079557186 4.389671698 -0.517020233 0.251115593 0.827910997 6.744055874 -10.101506910 5.199219445 1.315173534 -22.147048661 -12.585658719 -12.380920471 8.192241044 -4.882867794 37.681564468 40.575717887 -40.385559076 -179.661605668 64.921903797 179.961505123 -11.488894158 4.882417086 -5.344183589 -0.001001619 0.001867136 -0.003523963 -5.089096536 0.851728299 18.975003774 13.082472434 6.582764585 2.809248804 -82.036104892 -68.578269961 22.017728792 179.668604914 -46.490367564 -179.604692583 9.292669527 10.700850058 -7.365411257 0.003734962 -0.001061772 0.002054797 -5.013796888 -0.860153507 -19.391774138 -15.799306022 -2.624408495 -24.387072057 -0.945064401 0.527111097 37.418913102 17.894674410 7.079012110 -8.196779288 0.001811264 -0.077331952 2.370753158 13.952833591 -3.761596552 -4.798480310 -0.240109807 0.228270535 37.490766940 -13.947435504 -4.151311890 -30.666648776 -0.005614075 0.170524069 4.056295406
-0.110874606 88.545763251 0.415036250 -1.297932801 -4.348370490 -1.368196449 -0.392309855 -0.107826823 4.135080799 0.337483678 -0.092295649 2.303751803 -0.470823421 2.088993100 4.389308187 -0.520245260 0.252495232 0.830928107 6.712967822 -10.057764478 5.224385939 1.291501629 -22.115913343 -12.601143835 -12.385034717 8.191023433 -4.875930684 37.791657247 40.517808213 -40.513451393 -179.735199066 64.851826235 179.902833023 -11.499315858 4.913598168 -5.342798416 -0.001038389 0.001887881 -0.003493082 -5.088799085 0.852008072 18.981029215 13.150016942 6.571469676 2.773547907 -82.378294077 -68.491381430 22.162813210 179.686212092 -46.418611639 -179.606381034 9.167400684 10.617230423 -7.324926050 0.003682072 -0.001069635 0.001872462 -5.010810757 -0.860148969 -19.401745355 -15.830597151 -2.595974401 -24.388707182 -0.877602566 0.480359031 37.376903321 17.896912613 6.963019072 -8.202755196 0.001811264 -0.077331952 2.370753158 13.981456045 -3.741914036 -4.919314144 -0.206605417 0.202959302 37.544785908 -13.938906320 -4.226068741 -30.644865719 -0.005614075 0.170524069 4.056295406
-0.098256011 88.548494993 0.383258726 -1.327010874 -4.259412019 -1.320446276 -0.398368617 -0.107993529 4.101199842 0.327326556 -0.091279833 2.292829440 -0.466483624 2.101747697 4.390436068 -0.523519245 0.254506863 0.834069178 6.677201047 -10.010387872 5.247883718 1.266764277 -22.077687261 -12.618525560 -12.389634607 8.190014536 -4.871871450 37.919588443 40.462107498 -40.638814379 -179.810981324 64.775774062 179.843279201 -11.506820657 4.943434630 -5.336180436 -0.001076741 0.001916850 -0.003450697 -5.089210815 0.852334411 18.985421113 13.222702505 6.556639529 2.732090453 -82.735527339 -68.401063830 22.310526626 179.704712015 -46.346493662 -179.610531773 9.038733061 10.527838673 -7.282986096 0.003640034 -0.001068143 0.001682991 -5.008115754 -0.860192872 -19.411614838 -15.866089001 -2.565541398 -24.392439514 -0.805142591 0.430557373 37.329946089 17.899601353 6.841147971 -8.203438145 0.001811264 -0.077331952 2.370753158 14.008618921 -3.718942040 -5.051796819 -0.169753128 0.175291089 37.608668752 -13.929978123 -4.304279364 -30.622001677 -0.005614075 0.170524069 4.056295406
-0.083348611 88.550872241 0.345183637 -1.356324161 -4.169120500 -1.272236557 -0.404549456 -0.107501475 4.068412099 0.317950953 -0.089940072 2.282783034 -0.461476591 2.117812219 4.392949408 -0.526749416 0.257159276 0.837202764 6.637401840 -9.960076120 5.268823744 1.241416333 -22.032941794 -12.637552348 -12.394819107 8.189189197 -4.870482505 38.063381100 40.408766742 -40.760155279 -179.886667677 64.694387297 179.784676556 -11.510931135 4.971602023 -5.324414894 -0.001116179 0.001954309 -0.003396568 -5.090302393 0.852699908 18.988154912 13.299406534 6.538283326 2.685665083 -83.102229706 -68.308773516 22.458249828 179.724038887 -46.274988387 -179.617203118 8.908480470 10.433984655 -7.240456206 0.003609222 -0.001057043 0.001490052 -5.005788291 -0.860287033 -19.421153617 -15.905159867 -2.533787740 -24.398397311 -0.728798949 0.378513616 37.278945314 17.902703772 6.715158494 -8.198927284 0.001811264 -0.077331952 2.370753158 14.034010341 -3.693243830 -5.194358321 -0.130114253 0.145681162 37.681762622 -13.920794294 -4.384839599 -30.598459359 -0.005614075 0.170524069 4.056295406
-0.066436047 88.552785431 0.301335613 -1.385509012 -4.078607615 -1.224182916 -0.410777191 -0.106325589 4.037313116 0.309496875 -0.088273881 2.273845433 -0.455842336 2.137115996 4.396686716 -0.529848423 0.260448027 0.840193344 6.594305871 -9.907592051 5.286396835 1.215939711 -21.982392700 -12.657936014 -12.400680428 8.188537524 -4.871512117 38.220704193 40.357830048 -40.876083012 -179.960000083 64.608383325 179.728813228 -11.511299739 4.997781502 -5.307743744 -0.001156176 0.002000357 -0.003330715 -5.092032241 0.853096605 18.989241610 13.378909027 6.516460183 2.635170452 -83.472712985 -68.216036334 22.603455070 179.744087386 -46.205061368 -179.626383553 8.778508443 10.337076041 -7.198270288 0.003589753 -0.001036224 0.001297342 -5.003895317 -0.860432017 -19.430142098 -15.947105976 -2.501446454 -24.406665404 -0.649770734 0.325072200 37.224912544 17.906159843 6.586935941 -8.189427225 0.001811264 -0.077331952 2.370753158 14.057355304 -3.665471160 -5.345202129 -0.088306674 0.114580505 37.763213172 -13.911520579 -4.466562018 -30.574661634 -0.005614075 0.170524069 4.056295406
-0.047851044 88.554133996 0.252364621 -1.414204813 -3.988997660 -1.176902091 -0.416962569 -0.104455199 4.008476565 0.302086589 -0.086285551 2.266234802 -0.449630271 2.159526197 4.401435517 -0.532736552 0.264355169 0.842905022 6.548721594 -9.853746464 5.299895834 1.190832557 -21.926884790 -12.679357472 -12.407300394 8.188065306 -4.874672368 38.388922893 40.309240619 -40.985332843 179.971192157 64.518546912 179.677383794 -11.507719068 5.021665315 -5.286560238 -0.001196184 0.002054916 -0.003253432 -5.094347656 0.853516193 18.988726994 13.459918242 6.491279277 2.581594940 -83.841298607 -68.124414854 22.743765205 179.764713511 -46.137650124 -179.637991554 8.650697018 10.238588847 -7.157409831 0.003581488 -0.001005725 0.001108507 -5.002492609 -0.860627092 -19.438375365 -15.991156302 -2.469287299 -24.417283753 -0.569316208 0.271093975 37.168947894 17.909887510 6.458454536 -8.175242466 0.001811264 -0.077331952 2.370753158 14.078422674 -3.636347977 -5.502341490 -0.044991018 0.082467179 37.851985409 -13.902342727 -4.548200806 -30.551044355 -0.005614075 0.170524069 4.056295406
-0.027967735 88.554829172 0.199032612 -1.442060616 -3.901406649 -1.131000282 -0.423004028 -0.101894542 3.982441309 0.295822142 -0.083986293 2.260149263 -0.442898636 2.184849017 4.406938304 -0.535343710 0.268849312 0.845205265 6.501512084 -9.799380982 5.308735034 1.166597959 -21.867373530 -12.701473274 -12.414747032 8.187793935 -4.879647870 38.565155802 40.262850194 -41.086788330 179.908935723 64.425718541 179.631944567 -11.500128359 5.042962398 -5.261399580 -0.001235644 0.002117733 -0.003165284 -5.097186160 0.853950218 18.986690079 13.541098133 6.462899145 2.525994229 -84.202433490 -68.035473555 22.877002288 179.785736458 -46.073645937 -179.651877127 8.526902868 10.140036636 -7.118880410 0.003584041 -0.000965730 0.000927060 -5.001623349 -0.860870220 -19.445668133 -16.036489570 -2.438097818 -24.430246987 -0.488724963 0.217435748 37.112218108 17.913784038 6.331737846 -8.156769748 0.001811264 -0.077331952 2.370753158 14.097030400 -3.606652177 -5.663640278 -0.000855567 0.049837025 37.946888703 -13.893463569 -4.628478435 -30.528048890 -0.005614075 0.170524069 4.056295406
