HIERARCHY
ROOT pelvis
{
  OFFSET 0.000000000 0.000000000 0.000000000
  CHANNELS 6 Xposition Yposition Zposition Zrotation Yrotation Xrotation
  JOINT Spine
  {
    OFFSET 0.000000000 7.098910000 -4.732610000
    CHANNELS 3 Zrotation Yrotation Xrotation
    JOINT Spine1
    {
      OFFSET 0.000000000 9.321421820 -1.643618918
      CHANNELS 3 Zrotation Yrotation Xrotation
      JOINT Spine2
      {
        OFFSET 0.000000000 9.429201273 -0.824953336
        CHANNELS 3 Zrotation Yrotation Xrotation
        JOINT Spine3
        {
          OFFSET 0.000000000 9.465219566 -0.000009457
          CHANNELS 3 Zrotation Yrotation Xrotation
          JOINT Neck
          {
            OFFSET 0.000000000 24.846202406 3.549435011
            CHANNELS 3 Zrotation Yrotation Xrotation
            JOINT Head
            {
              OFFSET 0.000000000 12.816978830 2.259967009
              CHANNELS 3 Zrotation Yrotation Xrotation
              End Site
              {
                OFFSET 0.0 5.0 0.0
              }
            }
          }
          JOINT RightShoulder
          {
            OFFSET -3.199490000 17.277204535 5.332462492
            CHANNELS 3 Zrotation Yrotation Xrotation
            JOINT RightArm
            {
              OFFSET -15.890800000 -0.000005505 0.000000000
              CHANNELS 3 Zrotation Yrotation Xrotation
              JOINT RightForeArm
              {
                OFFSET -29.543600000 -0.000010234 0.000000000
                CHANNELS 3 Zrotation Yrotation Xrotation
                JOINT RightHand
                {
                  OFFSET -23.265200000 -0.000008059 0.000000000
                  CHANNELS 3 Zrotation Yrotation Xrotation
                  JOINT RightHandEnd
                  {
                    OFFSET -6.961150000 -0.000002411 0.000000000
                    CHANNELS 3 Zrotation Yrotation Xrotation
                    End Site
                    {
                      OFFSET 0.0 5.0 0.0
                    }
                  }
                  JOINT RightHandThumb1
                  {
                    OFFSET -2.784459357 -1.856306242 4.640771642
                    CHANNELS 3 Zrotation Yrotation Xrotation
                    End Site
                    {
                      OFFSET 0.0 5.0 0.0
                    }
                  }
                }
              }
            }
          }
          JOINT LeftShoulder
          {
            OFFSET 3.199490000 17.277204535 5.332462492
            CHANNELS 3 Zrotation Yrotation Xrotation
            JOINT LeftArm
            {
              OFFSET 15.890800000 0.000000000 0.000000000
              CHANNELS 3 Zrotation Yrotation Xrotation
              JOINT LeftForeArm
              {
                OFFSET 29.543600000 0.000000000 0.000000000
                CHANNELS 3 Zrotation Yrotation Xrotation
                JOINT LeftHand
                {
                  OFFSET 23.265200000 0.000000000 0.000000000
                  CHANNELS 3 Zrotation Yrotation Xrotation
                  JOINT LeftHandEnd
                  {
                    OFFSET 6.961150000 0.000000000 0.000000000
                    CHANNELS 3 Zrotation Yrotation Xrotation
                    End Site
                    {
                      OFFSET 0.0 5.0 0.0
                    }
                  }
                  JOINT LeftHandThumb1
                  {
                    OFFSET 2.784460000 -1.856305278 4.640771642
                    CHANNELS 3 Zrotation Yrotation Xrotation
                    End Site
                    {
                      OFFSET 0.0 5.0 0.0
                    }
                  }
                }
              }
            }
          }
        }
      }
    }
  }
  JOINT RightUpLeg
  {
    OFFSET -9.491820000 -2.772890000 0.000000000
    CHANNELS 3 Zrotation Yrotation Xrotation
    JOINT RightLeg
    {
      OFFSET 0.000000000 -41.211800000 0.000000000
      CHANNELS 3 Zrotation Yrotation Xrotation
      JOINT RightFoot
      {
        OFFSET -0.000000000 -45.609100000 0.000000000
        CHANNELS 3 Zrotation Yrotation Xrotation
        JOINT RightToeBase
        {
          OFFSET -0.000000000 -5.847492523 16.065826618
          CHANNELS 3 Zrotation Yrotation Xrotation
          End Site
          {
            OFFSET 0.0 5.0 0.0
          }
        }
      }
    }
  }
  JOINT LeftUpLeg
  {
    OFFSET 9.491820000 -2.772890000 0.000000000
    CHANNELS 3 Zrotation Yrotation Xrotation
    JOINT LeftLeg
    {
      OFFSET 0.000000000 -41.211800000 0.000000000
      CHANNELS 3 Zrotation Yrotation Xrotation
      JOINT LeftFoot
      {
        OFFSET -0.000000000 -45.609100000 0.000000000
        CHANNELS 3 Zrotation Yrotation Xrotation
        JOINT LeftToeBase
        {
          OFFSET -0.000000000 -5.847492523 16.065826618
          CHANNELS 3 Zrotation Yrotation Xrotation
          End Site
          {
            OFFSET 0.0 5.0 0.0
          }
        }
      }
    }
  }
}
MOTION
Frames: 40
Frame Time: 0.050000000000
-0.012728572 95.966303349 0.078821182 0.202638199 -0.126467755 -7.118637669 -0.089880907 -0.039125389 1.456343964 -0.051644416 -0.048014265 0.232576557 0.729949964 -0.892319290 8.090769474 -0.150805169 -0.163607151 1.670622321 -2.846025368 1.918846366 1.333971353 -1.964309789 1.331476627 -8.807078845 4.669087310 1.039065067 8.996460352 74.460444256 15.330009800 37.010807605 -0.091693014 16.298761078 -0.050484443 -1.807563750 4.946287020 -0.125486610 -0.006245645 -0.007058226 0.018819799 -5.046002037 0.862811229 19.605083675 -7.345386971 -0.036307726 7.923200736 -71.885378564 -13.618167747 37.531960006 0.236640703 -16.814590879 0.008697253 6.788068850 -2.738332789 1.771317237 -0.013566907 0.014917880 0.006611351 -5.124113040 -0.870017393 -19.277732875 -4.785784461 -7.520788329 9.391442789 -0.007277112 -0.058689905 6.526475076 4.031924957 3.332870002 -9.557762183 0.007772024 0.068288199 0.763242252 2.664816511 3.929926728 12.351584951 -0.001477261 -0.015124304 1.862759493 -2.755382369 3.959340055 -8.297186521 -0.000753298 0.051970578 -0.331537945
-0.095796585 95.937943459 0.147485733 0.338707964 -0.074996296 -6.924331325 -0.080043565 -0.032128360 1.467387356 -0.047127872 -0.047355888 0.241081987 0.646055419 -0.924592929 8.061242077 -0.170711030 -0.190883656 1.653263208 -3.075888588 1.977854596 1.158544037 -2.048045170 1.356347987 -8.867504261 4.536965875 1.108056218 8.996992750 74.527043434 15.381004907 37.038201823 -0.036945271 16.193519376 -0.044435034 -1.881463599 5.050914508 -0.017548164 0.000215083 0.006983727 -0.017713279 -5.073306587 0.880123903 19.453044181 -7.367349655 -0.045590422 7.913569554 -71.899590343 -13.494141532 37.159894572 0.263888750 -16.950022402 0.001429937 6.935372110 -2.784978043 1.704654983 0.010474045 0.004895933 0.000863516 -5.081357504 -0.852857912 -19.323531467 -4.857397239 -7.555796537 8.920124514 -0.004871997 -0.059793997 7.133108000 3.962657042 3.344853544 -9.920547427 -0.002158952 0.020987937 0.668414939 2.569547308 3.885797406 12.223735257 -0.024196267 -0.029974383 1.784370546 -2.861394572 3.955676509 -8.228388500 -0.001709421 -0.093186829 -0.345071020
-0.299370242 95.900267363 0.289249420 0.494799743 -0.144646332 -6.788533039 -0.078502460 -0.051911073 1.541596710 -0.030336685 -0.056641220 0.275179141 0.566026724 -0.884954227 8.052249445 -0.211246187 -0.186693994 1.645133312 -3.353811220 2.055580597 0.886767011 -2.151861781 1.435902998 -8.972081709 4.455935002 1.231230653 8.961629093 74.511887684 15.355708932 37.126321576 0.044529641 16.198694784 -0.055749950 -1.783528815 5.130119754 -0.128911563 -0.008758640 -0.002293206 -0.004977034 -5.082140469 0.866715380 19.429423319 -7.388409732 -0.024735201 7.932725397 -71.845553439 -13.373385486 36.766373412 0.342495547 -17.188038676 -0.028939184 7.015555937 -2.939965169 1.552132334 0.015090601 0.004029885 -0.011040924 -5.062168842 -0.850947470 -19.381225272 -4.903366890 -7.562616505 8.262253032 -0.002530018 -0.088822590 8.233777351 3.792538748 3.490967300 -10.517523156 0.009450346 0.018953120 0.748308606 2.504199585 3.877034961 12.145356511 -0.011758484 -0.026780045 1.808405801 -2.943108110 3.994224423 -8.213089854 -0.006170693 -0.081677424 -0.287811480
-0.577688171 95.834898949 0.454723835 0.730078241 -0.328818609 -6.613633857 -0.092870920 -0.089782054 1.608168453 -0.028535460 -0.055923811 0.319110193 0.471014147 -0.831676343 8.104349824 -0.241375907 -0.175366451 1.629015396 -3.665139472 2.190152151 0.514443199 -2.251648040 1.518024786 -9.094616177 4.497609683 1.365572671 8.917108777 74.487301112 15.378688489 37.259634593 -0.082907640 16.138946189 -0.100676788 -1.653835207 5.154495977 -0.315542206 0.000231787 0.002862037 -0.009519132 -5.034247372 0.865122184 19.461750174 -7.451325066 0.010810955 7.949544994 -71.635863350 -13.336931525 36.426459679 0.268333695 -17.413913885 -0.061582073 7.022744756 -3.095800310 1.356270187 -0.008794768 0.007786700 0.007396222 -5.080606116 -0.864522148 -19.319272952 -4.976273648 -7.525861299 7.345972183 0.006725631 -0.090187198 9.773172236 3.569438022 3.667326499 -11.347646842 0.006157743 0.054128151 0.889005014 2.425063452 3.991661761 11.996652955 0.013618568 -0.068431704 1.972003002 -3.131669036 4.058292963 -8.355871313 0.000788782 0.019057723 -0.317271182
-1.013031602 95.750391483 0.714528561 1.001252850 -0.773509391 -6.327328910 -0.135721921 -0.045982732 1.578725061 0.048469435 -0.080677217 0.380088093 0.397296355 -0.678269049 8.012203413 -0.268327754 -0.153786144 1.674693827 -4.178995465 2.182718328 0.274248750 -2.596114902 1.480906815 -8.833439594 4.452358993 1.512887412 9.100262074 74.577955641 15.512527582 36.483007162 -0.144634168 15.962529932 0.008220502 -1.560377694 5.333184498 0.117455057 0.006933509 -0.007803044 0.005746998 -5.028170297 0.870408434 19.472704005 -7.655758771 0.202468615 8.144820417 -71.243684298 -13.710840459 36.952615497 0.176798697 -17.362904630 -0.117192166 6.897853271 -2.941188976 0.572319488 0.006828428 -0.003928239 0.004202125 -5.109226934 -0.867306901 -19.212770967 -4.768962227 -6.502608872 6.127606512 -0.011645235 -0.043542689 11.650208118 3.481109637 3.105955439 -12.357698564 -0.001917493 0.092349716 0.714160118 2.357045276 3.887057409 11.682323868 0.001942348 0.030673942 2.362973333 -3.471293944 4.505205766 -8.590956366 -0.006631139 0.069485938 -0.365348143
-1.598393917 95.640969276 1.141095161 1.327030029 -1.196515228 -6.052393275 -0.205223763 -0.125900291 1.556103029 0.042477536 -0.083890572 0.363192646 0.327481389 -0.696166984 8.077286499 -0.304289852 -0.177355457 1.698224650 -4.740660967 2.369132648 0.231364890 -2.999425853 1.546937838 -8.956633675 4.239733733 1.740453095 9.246271763 74.973946097 15.674433072 36.385333751 -0.328715661 15.719154976 -0.011995164 -1.660878867 5.472142127 -0.026788919 0.002283556 -0.005625839 -0.002726135 -5.067837937 0.872221954 19.419950916 -7.849729994 0.212894937 8.186170976 -70.817658236 -13.762265745 36.674898608 -0.020002660 -17.076616283 -0.052200268 6.706663572 -2.799760382 0.652189338 0.010655471 -0.004301460 -0.013314254 -5.087084439 -0.875185289 -19.327688880 -4.548726522 -5.715044154 4.933939349 -0.015197933 0.069087848 13.811606605 3.107851908 2.665485408 -13.671689894 -0.005596657 0.032964030 0.702384516 2.459229544 4.062658032 11.704935786 -0.039643009 0.052372321 2.439883877 -4.102890792 4.747423740 -8.885662942 0.007973458 0.010772760 -0.466184021
-2.392065525 95.510053635 1.684689522 1.716313472 -1.560791001 -5.734492311 -0.340720904 -0.187956009 1.504791101 -0.002944576 -0.094629098 0.328137241 0.190280542 -0.928717761 8.127409706 -0.340624160 -0.234118571 1.711558405 -5.206201438 2.499561514 0.256451720 -3.390715816 1.728417590 -9.013128783 4.086607168 1.830916454 9.307210840 75.452129189 15.856378002 36.429739859 -0.364336362 15.439474988 -0.028208906 -1.824957609 5.463799219 -0.201958641 -0.004320903 0.005136805 -0.007033159 -5.073184383 0.875124837 19.466001488 -7.839891355 0.085126525 8.280438296 -70.494963566 -13.751984013 36.354859999 -0.124398866 -16.665388888 -0.007088178 6.729953434 -2.810409320 0.396240973 0.008610904 0.015140408 -0.005227748 -5.055342645 -0.847674395 -19.440243433 -4.253203435 -5.041500336 3.774931893 -0.028148905 0.119076752 16.038509044 2.658228108 2.260591854 -15.098714224 0.007574975 0.128599362 0.521147568 2.632588637 4.226442383 11.706905287 -0.014376981 0.115435186 2.630368898 -4.783360343 4.826671907 -9.196327095 0.007676107 0.046078780 -0.662511013
-3.655058146 95.294249058 2.493858337 1.769350161 -2.011607643 -5.549407282 -0.347119780 -0.205871796 1.467254214 -0.041754906 -0.118003647 0.312092494 0.123556319 -1.262415368 8.168564681 -0.339822037 -0.287073132 1.741453778 -5.525215404 2.574652835 0.351898448 -3.685654453 1.968749356 -8.979166688 3.975602053 1.714868823 9.356824248 75.817833333 16.081788321 36.652737480 -0.202208667 15.451837288 -0.069111335 -1.836243538 5.324948215 -0.286237341 0.007319602 -0.002830827 -0.000779195 -5.053804678 0.870865455 19.559031050 -7.581734196 -0.109739259 8.340822788 -70.295898330 -13.582409885 36.111723045 -0.260900051 -16.282308440 0.046301765 6.922110365 -2.893617556 -0.027045661 -0.006579738 0.013476741 -0.009326066 -5.051703228 -0.859135669 -19.454331331 -3.491946802 -4.356632976 3.091827224 0.009304925 -0.020703623 17.901142249 2.024830394 2.029415427 -16.458600170 -0.005519553 0.090438294 0.725637898 3.387848811 4.576749566 11.651589115 0.053598360 -0.058325901 3.503947735 -5.773170058 4.930980583 -10.089279133 -0.006404549 0.017728969 -0.679201628
-5.088019371 95.058691502 3.501617908 1.772503746 -2.540810128 -4.975396635 -0.351935794 -0.360554274 1.120744534 -0.066836290 -0.153803047 0.542924082 0.056750459 -1.990024328 8.005801441 -0.361643342 -0.430489420 1.568494217 -6.036914461 3.160509105 0.346554770 -4.004509077 3.323118578 -9.303363729 3.954634819 2.241852076 9.436097221 75.763788010 16.299828704 36.223092987 0.168303656 16.102879245 0.017833497 -1.704230745 4.786523464 -0.338398619 -0.018988175 0.009700921 -0.024325449 -5.043016020 0.850042784 19.364277786 -7.388677032 0.360761315 8.721535342 -69.816250565 -13.832640834 34.986845583 -0.734812932 -16.115881694 0.158069434 7.054775209 -3.038035999 0.420406600 0.009984170 0.009693451 -0.003051966 -5.069513604 -0.866338736 -19.413072112 -2.402332510 -3.290765345 1.986342455 -0.000711736 0.010235571 19.861360131 1.112853206 1.143482270 -17.939645440 0.023823244 0.107972655 0.402712433 3.491725364 1.147417095 10.599273493 -0.114914620 0.181124504 5.762588255 -6.963328375 7.796332623 -12.217003121 0.015592975 -0.156872638 -0.062617379
-6.744319201 94.685012102 4.478526115 0.491908175 -3.038856562 -4.673939061 0.653301616 -0.408235252 1.247641953 -0.001953303 -0.137400046 0.573346034 0.245426231 -2.504588051 7.877219342 -0.344732520 -0.495883654 1.539081631 -6.343706103 3.423822327 0.360778450 -4.170242397 4.164071461 -9.869600270 3.673099219 1.762769245 9.458747000 76.022003259 16.675406116 36.214346595 -0.042544936 16.855845531 0.059137357 -1.498401225 4.451524957 -0.740461884 0.007005108 -0.011429650 0.039034375 -5.023954306 0.823706109 19.494179607 -6.823670619 0.100543500 8.664624773 -69.881713272 -13.591527584 33.762046670 -0.667993115 -16.212243906 0.044784883 6.854849971 -2.869587759 0.673728082 -0.000082233 0.019751201 -0.029610500 -5.048557358 -0.871490618 -19.447232377 0.023278702 -2.829796810 1.958855462 -0.013705673 0.042557418 20.472966420 0.252980280 0.656209886 -18.874982100 -0.029659337 0.072722660 0.785074283 5.112266772 -1.514910146 7.285217943 -0.000352077 -0.077621883 12.917461504 -8.670149258 10.014845842 -16.108572324 0.022705854 0.600044861 0.197002419
-8.416497707 94.321978092 5.471253395 -0.599147022 -3.768487821 -4.477901882 1.271532546 -0.194104364 1.547022092 0.130669658 -0.156274362 0.716070722 0.755640748 -2.781925181 7.850616975 -0.245358861 -0.518811570 1.512991261 -6.386952502 3.525743044 0.193083696 -4.353009839 4.878268816 -10.581092041 2.832423125 1.433012236 9.297109570 76.160775989 17.090190287 36.129800528 0.036519764 17.648163450 -0.007247834 -1.384613163 4.006592190 -1.488917903 -0.015993959 -0.020430910 0.015445396 -5.074496872 0.847782787 19.385705629 -5.692339050 -0.136926533 8.714210491 -70.949792675 -13.773563527 32.643082878 -0.522240281 -16.661509414 0.042166820 7.239494542 -2.820006914 0.789026000 0.013041162 -0.012123170 0.006286808 -5.063223757 -0.902181380 -19.394729270 2.184743044 -2.252556755 2.592223513 -0.018773760 -0.050953941 20.089170946 -0.581957307 0.405473697 -19.209560846 -0.024213460 0.204758832 1.114360351 6.642827353 -3.600746905 1.503332952 -0.045879123 -0.299919387 24.826832560 -9.663385360 11.780882935 -17.422010943 -0.091994416 0.798612206 -1.804131519
-9.751686454 94.134795666 6.647157669 -1.147349029 -4.291818516 -4.450064169 1.667567697 -0.401714734 1.965619285 0.222066743 -0.117784857 0.941281208 1.141356301 -2.536323731 7.904932775 -0.161699818 -0.424548915 1.502049081 -6.156579062 3.562398950 -0.005585687 -4.443054326 5.150245967 -11.084143162 2.127019440 1.505670861 9.118380820 75.936962655 17.229506033 35.966152634 -0.354989385 18.085677864 -0.120361868 -1.416920827 3.695673171 -2.498366832 -0.028669463 0.025312650 0.019768993 -5.116133730 0.897623326 19.348197011 -4.990493269 -0.356912517 8.863513592 -71.913843267 -14.261092606 31.895276288 -0.157358799 -17.567912969 -0.018740894 8.003512292 -2.914512369 0.827265206 0.016444076 -0.006707279 0.011570081 -5.043153993 -0.878710928 -19.396467697 3.547136157 -1.943506027 4.025759758 -0.039718220 -0.116762025 18.751756003 -1.352700154 0.262010895 -19.292230862 0.040533735 0.270995916 1.149552414 7.263806387 -5.014368415 -6.027994469 -0.147713012 -0.470965725 39.056130913 -7.817525415 15.023876841 -12.322075515 -0.070713976 0.437977394 -4.443061137
-10.711684823 94.205886126 8.096265793 -0.669223558 -5.687356434 -4.699930877 1.734942850 -0.177885810 2.730115874 0.224936447 -0.209574467 1.115015921 1.047636013 -1.768983591 7.752224183 -0.099791911 -0.263529404 1.539010656 -5.796216241 3.904526930 0.015963772 -4.399444447 5.003080471 -12.509432505 1.280508337 2.011242096 9.359354344 75.849271263 17.556672359 34.775413480 -0.464170162 17.607295268 -0.209052461 -2.004046003 3.554025656 -2.989098061 -0.020813847 0.001001989 -0.002010256 -5.117117652 0.857519095 19.410217052 -4.745391288 0.101084296 9.078216894 -72.475994786 -14.943611545 32.023156051 0.147127368 -18.789703576 0.132647787 8.920724351 -2.799488352 1.347168726 -0.008431690 0.004109222 0.024262953 -5.039470391 -0.861475371 -19.421028023 3.156613899 -2.639721894 6.246618394 0.005330650 -0.113446534 16.512095556 -1.878673663 2.068682935 -18.923067156 -0.008719914 0.422538728 0.544373972 5.887360832 -5.124737793 -13.453437527 0.018427867 -0.169867192 50.791355943 -3.721737317 18.879514966 -7.273631514 0.080635149 -0.042075133 -4.530492093
-11.378315836 94.436562061 9.875320643 0.510920973 -6.888995209 -4.424673558 1.411232335 0.199668942 3.068574731 0.165044652 -0.180496042 1.304298050 0.519053036 -1.111563049 7.456188276 -0.210717250 -0.167018719 1.452443562 -5.407663864 3.972824180 -0.220582403 -3.951662023 4.883908886 -13.159423475 0.728968352 2.414109118 9.484913310 75.874608892 17.596679652 34.107827568 -0.535502067 16.829655197 -0.089224784 -2.290743770 3.407031202 -3.742389104 -0.000545781 0.032528094 -0.004059514 -5.085688519 0.865128425 19.410015359 -4.635563461 0.220298676 8.939714537 -72.442461362 -14.782008347 31.570067930 0.271315385 -20.142400060 0.080470048 8.743292273 -2.659218001 2.442257548 -0.010532067 0.009669665 0.009921672 -5.103876519 -0.851549286 -19.313678745 1.891638382 -3.131878018 8.286965439 0.036737933 -0.044184100 14.022250505 -2.101111783 3.579945673 -18.664943522 -0.006623563 0.276193394 0.407196803 3.865348156 -3.463998390 -18.958807455 -0.016570224 0.003051762 53.535963018 -3.851778225 16.223078256 -6.596759739 0.111341953 -0.254912937 -3.670694633
-11.935204268 94.549649954 11.947882175 2.029941945 -7.820273705 -4.010585616 0.916733122 0.214253219 3.199973461 0.089471839 -0.171188467 1.424732268 -0.292615247 -0.343628363 7.198729233 -0.404469014 -0.130887446 1.364806623 -5.208849172 4.106524706 -0.485572700 -3.469867960 4.800353244 -13.616237694 0.207107170 2.788819597 9.415517516 76.103978702 17.491661991 33.852759868 -0.492949079 16.355797968 -0.107367507 -2.396448404 3.509415615 -3.986388052 -0.016427632 -0.038522775 0.001383859 -5.066040742 0.846745401 19.446132971 -4.966496636 0.405476367 8.891023695 -71.662793811 -14.419719618 30.668178707 0.243392298 -21.329197905 0.099192868 8.330856429 -2.504370217 2.778902099 0.004277319 -0.010487139 -0.001507833 -5.137556404 -0.918586192 -19.250230972 0.164088767 -3.794573461 10.511808714 -0.008176469 0.001036670 11.183590921 -2.065337380 5.182057456 -18.514976639 0.022201643 0.274911939 0.295599842 1.145868280 -1.761356563 -22.423142937 -0.033393046 -0.037010201 48.633407275 -5.324930655 14.046835694 -7.139181765 -0.006726193 -0.196315767 -3.901028139
-12.599766254 94.396114349 14.567828178 2.853030573 -8.890472170 -3.756848751 0.811732670 0.358605674 3.290364833 0.086973948 -0.130236518 1.507418794 -0.851204922 0.313469728 7.059218885 -0.573414082 -0.087144808 1.336743652 -5.351239306 4.429075841 -0.634200286 -3.080355932 4.710913291 -13.776843305 -0.338134796 3.272388749 9.351381954 76.363478161 17.263453833 33.765417424 -0.469141310 16.540181531 -0.032009433 -2.489988563 3.851286926 -3.872716138 -0.023861336 0.018018355 -0.011394730 -5.050405167 0.883486491 19.431873634 -5.348984618 0.854219899 8.884039806 -70.957711614 -13.869127985 29.765443981 0.368485528 -22.164245072 0.081690634 8.023014740 -2.356195722 2.489706381 0.002028100 -0.038969890 0.005906106 -5.121620155 -0.891884385 -19.320118336 -0.861004550 -3.966171395 13.234364378 0.017219017 0.000797134 8.362969815 -2.084415635 6.495359097 -18.555918424 0.004980010 0.246010466 0.357790028 -0.551928838 -0.012625404 -23.557120535 -0.039231220 -0.093497795 38.015476737 -6.222796961 13.987312234 -5.675235744 0.007900015 -0.059711076 -4.049341162
-13.277849555 93.766593933 17.557096481 2.653495879 -9.968759985 -3.004728413 1.239291588 0.436270685 3.308880412 0.296701668 -0.052391672 1.509916281 -1.062358589 0.778699913 7.031846344 -0.768384455 -0.112401001 1.280214472 -5.682459667 4.907982009 -0.986967864 -2.720707252 5.135097002 -14.206162802 -0.705103802 4.098095779 9.387647398 76.183052063 17.525992490 33.330414976 -0.114885786 17.083822051 -0.052791317 -2.278884155 3.901781810 -2.879534614 0.012220321 -0.008403760 -0.009690205 -5.083362073 0.875322026 19.307859033 -5.427321947 1.268841023 8.562432604 -70.714338132 -13.292860038 28.942916752 0.350898380 -22.597023502 0.083695626 8.054351333 -2.504228770 2.426573671 -0.025344805 -0.007329304 -0.023561233 -5.184344328 -0.849621916 -19.083063346 -0.598745828 -3.418380439 15.202115776 0.017375621 -0.145316351 6.641368457 -2.925847507 6.961233255 -19.218863864 -0.016844592 0.206803986 0.882567344 -1.179492530 2.118481892 -23.678934795 -0.006044969 -0.045480053 24.503499339 -5.341959248 12.144680362 -2.901525762 0.003629353 -0.075858281 -3.463328053
-13.958886266 92.993450165 21.018004417 2.009613322 -10.550381243 -2.217673849 1.593097171 0.325003645 2.961533286 0.440810606 -0.081925605 1.419706141 -0.850883206 1.002478756 7.160272154 -0.771466319 -0.119984887 1.308624182 -5.990640484 5.223281969 -1.149681726 -2.570324103 5.273771010 -14.086314599 -0.686191610 4.270474801 9.246439687 75.882787554 17.673239981 33.603444602 0.029012852 17.306144933 -0.020844204 -1.957759114 3.868733154 -2.226145511 0.025269739 -0.008169874 -0.004607009 -5.053558952 0.898691631 19.311947821 -5.570236664 1.570969870 8.708032018 -70.878816418 -12.619167090 28.122430169 0.552824311 -22.552875877 0.085586249 8.287306660 -2.523170747 1.653575062 0.039960396 -0.020533388 0.042696136 -5.226038773 -0.871996190 -18.895182586 -0.149944877 -3.426652226 17.501771994 0.060314554 -0.140111949 5.314405863 -3.367293671 7.534269829 -20.473331390 -0.012518285 -0.020352017 1.725492278 -1.539638245 2.940048383 -23.182917645 0.113902816 0.156569065 12.331828108 -5.714962354 9.414140829 -1.128243195 -0.135959031 -0.690193479 -4.050469865
-14.609801769 92.109477520 25.061261654 1.562909715 -11.273612995 -1.665052945 1.783283198 0.371090021 2.691966913 0.547935118 -0.096184690 1.319666618 -0.717808175 1.068631642 7.371841320 -0.781294248 -0.072403020 1.357847033 -6.345900715 5.464835129 -1.413468983 -2.415575656 5.520129892 -14.118927614 -0.568019397 4.315071678 9.221253487 75.642765709 17.771977161 33.753956076 0.061615932 17.474397543 -0.004161758 -1.827213283 4.028238587 -1.937278604 0.020391906 -0.002816644 -0.011584010 -5.050613505 0.851978563 19.319754109 -5.915505642 1.757175349 8.753735814 -70.733373415 -11.777906967 27.404407978 0.472167695 -21.895931533 0.047017222 8.322402530 -2.727991762 0.570165498 0.015966378 0.012411295 -0.021797080 -5.176419453 -0.848297268 -19.088785209 -0.107337468 -3.478073263 20.014363424 0.017689941 -0.142527923 4.759950988 -3.621655040 8.339998358 -22.225532745 0.037330356 -0.206048580 2.095454491 -2.213785798 3.996906523 -22.530925830 -0.006855671 0.082312836 4.006288348 -6.294539380 8.344050253 -1.303303849 -0.283284899 -0.981384018 -3.972669800
-15.169751644 91.325199604 29.787969589 1.262233895 -12.170746027 -1.125992708 1.884478321 0.476442525 2.343078554 0.695260740 -0.107005024 1.119962464 -0.738617183 1.418703163 7.494605819 -0.801004659 -0.016839303 1.376774012 -6.696174644 5.639131657 -1.668328157 -2.226550071 5.703996447 -13.764896779 -0.332491672 4.335255015 9.120414907 75.702951966 17.196751818 33.690508179 -0.185420472 17.391204879 0.030560374 -2.051176627 4.125335736 -2.173481939 -0.008817564 -0.007449724 -0.002337662 -5.087959113 0.869054697 19.363593225 -6.551887702 1.970716258 8.608567813 -70.277645054 -10.849414147 27.359186991 0.126751941 -20.479521777 0.088222820 7.860594392 -3.106138606 -0.371635497 -0.011809136 0.023883744 0.001094247 -5.106184118 -0.828700801 -19.365100610 -0.523005234 -3.431579553 22.074876934 0.028190325 -0.129330027 5.528264065 -3.575669992 9.095448858 -21.971220604 0.030107740 -0.326214956 0.696545273 -3.208100517 5.296837603 -23.210309362 0.078380028 0.016286110 4.055010205 -5.765816515 7.972015785 -0.524065904 -0.091018755 -0.415622012 -4.308990774
-15.546625853 91.005569696 35.222935677 2.427860846 -12.476420135 -0.628937339 1.228152132 0.375657682 1.618520050 0.697106620 0.029804354 0.199305211 -1.318958088 2.310595662 8.193610023 -0.919911212 0.126554570 1.526425171 -6.813525615 4.780636827 -1.824903588 -1.951609769 5.943918159 -13.272575881 0.609654131 3.762608685 9.071331368 75.438169821 15.928457860 33.608393916 -0.412870356 17.355618296 0.011245658 -2.771423869 4.403799866 -1.652987195 -0.015944739 0.014721159 -0.000613357 -5.068723629 0.870053825 19.345263976 -7.410787063 1.302185437 8.091936981 -69.413602000 -9.778725490 27.694930352 -0.193795978 -18.560790810 0.167329008 6.847895090 -2.788840373 -1.482140697 0.025491417 0.015773258 0.031980519 -5.111194721 -0.904650128 -19.231421522 -2.466237601 -3.325390921 22.802062281 0.082132930 0.020045607 8.614503771 -3.001082540 9.235455125 -18.786251868 0.001270077 0.173224429 -5.427854084 -4.492350625 2.445249538 -25.597818913 -0.028379137 0.004096889 11.565292970 -0.464614050 9.430319737 4.418896968 -0.074531159 -0.492298994 -4.939064754
-15.857034922 91.159772873 41.294187307 4.036776602 -12.935126464 -0.495779559 0.602300307 0.543717752 1.039113312 0.673633363 0.091715458 -0.148656912 -2.251238138 3.210721260 8.030888258 -1.107041593 0.245669643 1.490203159 -6.750517157 4.651811083 -1.887011853 -1.804093059 5.428483884 -12.669073764 0.661967248 3.908108469 9.223744304 76.170443167 14.313443885 33.561614724 -0.669302445 16.969166476 -0.093031832 -2.550797197 4.698086822 -1.657667852 -0.037996407 0.023948289 0.037359441 -5.238956069 0.874508647 19.376092117 -7.617208472 1.530269541 8.664854237 -69.479673098 -10.104886638 28.768908737 -0.183903282 -16.402522262 0.058489288 5.972167006 -1.408665262 -0.471964145 0.001333849 0.005634626 -0.024405781 -5.082241836 -0.881118244 -19.376233406 -5.049043530 -2.544591444 21.168016755 0.282527825 -0.413496445 16.209572284 -1.497319014 9.758064005 -12.482479377 -0.283356222 0.761986301 -15.530144123 -6.258926918 1.218000254 -26.575801734 -0.106377577 -0.111975977 19.136273473 3.030982172 10.046701123 6.108272954 0.010345152 -0.275679389 -3.861540105
-16.168391705 91.709977388 47.600400448 5.640327028 -12.612160855 -1.176136594 -0.008168055 0.628452570 1.052839431 0.541676879 0.099429805 -0.076804409 -3.149291222 3.760709001 7.810976862 -1.244669391 0.185778797 1.438885440 -6.779138656 4.438158813 -1.721161172 -1.661499755 4.806222153 -12.369181344 -0.201781587 3.963885198 9.454724563 77.774293419 13.441331195 33.803240723 -0.731453643 16.458621475 -0.280028205 -1.957272483 4.683269143 -1.470891580 -0.013159921 -0.055486983 0.005083842 -5.213319501 0.874848784 19.355713279 -6.724382594 1.550181794 9.126961984 -70.413801673 -10.595847503 29.221362824 0.041241997 -15.256133889 0.004845763 5.275620279 -0.455388417 0.152272393 -0.009836716 0.000127393 -0.032404236 -5.129733405 -0.966369855 -19.331325463 -7.967775070 -2.385324700 15.649009770 0.097647157 -0.504169628 30.753662884 4.026845206 11.361534012 -1.561619295 -0.676047776 0.754880485 -19.405234512 -8.211760481 -0.578341967 -24.630121568 0.015376829 -0.058443270 23.732491929 3.606438447 11.379378481 0.912309902 -0.010300404 -0.335981955 -1.998394795
-16.592523456 92.436832190 53.082567453 6.227411155 -11.659676772 -1.820004134 -0.006740685 0.261320928 1.544836992 0.373578038 0.125082023 0.198390551 -3.554227081 3.517758966 7.741168126 -1.277833370 0.133009337 1.386991487 -7.092838113 4.292314197 -1.657050877 -1.686917575 4.540568059 -12.356869184 -0.075025282 4.081859254 9.459918431 77.598558093 13.834939193 33.548140145 -0.562400300 16.615215603 -0.230640045 -1.050749189 4.447959748 -0.809919850 -0.018795812 0.016803320 -0.001678653 -5.143470040 0.898698506 19.280552099 -6.526727139 1.566969568 9.194446896 -70.397144733 -11.261228018 29.080315743 0.233926299 -16.003037203 0.026445661 5.054696316 -0.480689445 0.218720300 0.011017326 -0.062617720 -0.012946104 -5.195631593 -0.940668429 -19.203407559 -9.762534026 -3.152193178 5.968409030 -0.236653258 -0.028633684 48.982934618 7.379810967 11.493297065 12.120445958 0.806268515 -0.315872403 -8.119554467 -9.333216961 -2.170147158 -20.919500718 0.063913939 -0.044988638 24.838536378 3.712969192 12.270163131 -2.968498525 0.030526911 -0.383404746 -1.152407981
-17.395669222 93.307727575 58.295094967 6.619466206 -10.795209814 -2.890961474 -0.695724154 0.387812713 1.860876818 0.193803660 0.153404669 0.633472944 -2.887342907 2.713691653 7.774293829 -1.116330571 -0.003881882 1.549954249 -7.040301036 4.410145677 -0.664928458 -2.242800694 4.492378036 -11.887717706 0.638502532 3.552486824 9.591139365 76.131703773 15.168413641 32.528127945 0.175525332 16.934307683 -0.014848904 -1.857808164 5.686628302 -1.715532335 0.006925621 0.001625398 -0.004108411 -5.119281181 0.857010568 19.082632195 -6.505741796 1.645670531 9.605437144 -70.419790461 -12.567242992 30.066974592 0.757796074 -17.225444056 -0.165049693 6.121434893 -0.905456843 -0.096966797 -0.000154788 -0.026323859 0.001397894 -5.175200095 -0.881803743 -19.185226977 -10.750985967 -2.276769565 -3.323951070 -0.041407135 -0.240571787 62.493292193 6.274213050 7.476676425 8.354518710 0.300277832 -0.167855426 -4.434665564 -10.253310723 -2.662801895 -14.963962155 0.054647536 0.222636204 22.532548093 3.366067139 12.128036184 -5.655395082 0.013940151 -0.386359618 -0.416348032
-18.507145345 94.273585081 63.300848007 5.746469063 -9.610907873 -4.122471673 -0.908700946 -0.155456636 2.647492359 0.102923502 0.082251054 0.914466677 -1.986174914 1.690117504 7.923547838 -0.866285471 -0.098488360 1.618902143 -6.485242722 4.330661198 0.458678232 -2.282276737 4.735313267 -11.109409911 0.488197672 3.367887028 9.393829608 76.239751865 15.984833285 30.532369914 0.044112605 18.073855611 0.081636152 -3.069093494 5.801605150 -2.642024217 0.007755714 -0.015777324 -0.021805744 -5.125177001 0.859081614 19.001846660 -5.740709372 1.452286369 9.634868540 -70.836457266 -13.411665173 30.564830213 0.786496930 -19.123190622 -0.157989198 7.707996330 -1.077265606 -0.231669678 0.001163520 -0.015385244 -0.001890404 -5.194356823 -0.879107442 -19.096399786 -9.309411260 -1.861952920 -10.291728417 -0.029642649 -0.164247906 66.161510261 4.208873632 1.657610970 0.994297507 -0.216935132 0.157834766 -4.540334844 -9.505011011 -2.830423557 -7.887923825 0.008724283 0.232532700 18.497724074 2.953960367 11.547928759 -7.422453517 -0.018874505 -0.321340339 -0.325725393
-19.816702604 94.970786572 68.111109734 4.399067228 -8.729956742 -4.915909751 -0.886950009 -0.330980075 3.222526395 0.064180609 -0.024215590 1.118709574 -1.000264176 0.542939359 7.979962478 -0.595244509 -0.156571411 1.641075650 -5.674378424 4.192537642 1.332282667 -2.216317115 4.937888487 -10.048921266 0.503185672 3.063011575 9.064851719 76.176771451 16.445452974 28.865883780 -0.155752350 19.653505241 0.128946536 -3.688595270 5.904406210 -3.056482553 -0.002049246 0.002046130 0.000711905 -5.141664492 0.883133881 19.013591369 -5.161899587 1.110642083 9.431150976 -70.902286829 -14.247383847 30.528947148 0.406708758 -21.139791019 -0.044466392 8.806073628 -1.625921655 -0.774492975 0.013162906 0.001155164 -0.011993195 -5.152294852 -0.871698817 -19.097628127 -7.801610312 -1.253808724 -15.916172357 -0.028027793 -0.271317619 62.917362889 2.812977559 -1.161943720 -3.513833763 -0.244792275 0.261470203 -4.751918910 -8.068795138 -2.833822823 -0.985292111 0.052654718 0.156739399 13.705851348 2.605027302 10.922739196 -8.513693723 -0.016457910 -0.291595979 -0.059018544
-21.221584082 95.224022865 72.837746143 3.085347212 -8.218084224 -5.365820877 -0.833604238 -0.060921745 3.565067161 0.050526861 -0.095809874 1.269910561 -0.143151046 -0.451687335 8.109648187 -0.327253132 -0.197816866 1.698584833 -4.796000702 3.911653885 1.730492796 -2.087473479 5.076971326 -9.369137444 0.921077148 2.720128657 8.962569005 75.494280344 17.151048580 27.518485170 0.019694314 21.289059520 0.087024107 -3.570691056 5.971568155 -3.166538316 0.006945665 0.010609677 -0.022309260 -5.149870039 0.869330003 19.123884393 -4.925072562 0.645729966 9.110268515 -70.559166083 -15.337029079 30.198817550 0.071165693 -22.719582734 0.024489989 9.134343790 -2.446639312 -1.366231051 -0.008938418 -0.006741660 -0.024651496 -5.112209427 -0.861453672 -19.134902072 -6.662590168 -0.485829375 -19.056285183 -0.034847911 -0.042265378 52.901582101 3.044702958 -2.361855562 -6.092197145 -0.047199663 0.072297554 -4.218985051 -6.414559865 -2.625877798 5.426301074 0.016804732 0.083197263 8.909643567 2.202169767 10.315538374 -9.493139986 0.010520953 -0.239216094 0.125106858
-22.665005922 95.000934601 77.693992853 2.124250379 -6.554118950 -5.389979688 -0.982269616 -0.318511778 3.333604775 0.372713754 -0.072560123 1.568884636 0.372389648 -1.354980179 8.125699057 -0.474862950 -0.350427133 1.735354188 -3.807560510 3.076589581 2.048930790 -1.562245832 4.912435484 -9.874852820 1.522564499 2.235870588 8.977330436 74.769306655 17.720111393 27.122221405 0.356914259 22.346746023 0.246539041 -3.888337704 6.004117483 -2.515237401 0.000114597 -0.029213725 0.024698729 -5.109920180 0.867588341 19.261901966 -4.305105796 -0.016337512 8.979866241 -70.587998397 -16.816499331 29.841650715 0.037124841 -22.907752748 0.183044864 9.018366582 -2.986042939 -1.369178554 0.022846155 -0.019119236 -0.001545043 -5.106869385 -0.855408307 -19.297140211 -6.723401118 -1.209340587 -19.761477501 -0.010521164 -0.196744610 37.457022192 3.838525945 -3.009241448 -5.734710215 -0.007781110 -0.022025107 -3.436817426 -4.772427893 -2.297970599 11.120586872 -0.017117564 0.118121871 4.638125958 1.529584067 8.373137812 -10.725697047 -0.015673706 0.067558945 0.499189248
-24.251331389 94.251191616 82.667785883 2.229453940 -5.313247611 -5.085799657 -1.427314527 -0.292923610 2.928202271 0.216395349 -0.022905521 1.434386625 0.307047354 -1.838213250 8.276290720 -0.382542727 -0.415899180 1.795756028 -2.742296791 2.291006330 2.037604961 -1.305495111 4.205454344 -10.037413618 1.861196069 1.851533019 9.142046392 74.507223918 17.748459607 26.695208314 0.226042932 23.199045815 0.221611329 -4.453421167 6.159498679 -2.698957660 -0.000298499 -0.011274652 -0.025010066 -5.126375822 0.882194306 19.167768024 -3.627070132 -0.492968681 8.747931042 -70.840163187 -18.346994171 30.039990511 0.269873508 -22.266722503 0.179095852 8.699254301 -2.459862655 -1.106224372 0.027388921 -0.011980529 -0.030324621 -5.151578856 -0.884799067 -19.211020228 -7.862075103 -1.545059838 -19.018696482 -0.132339806 -0.071971944 19.800774993 5.073358178 -1.713989219 -2.724076870 0.039625379 0.142694197 -3.479409174 -4.010237155 -2.089566495 15.214303093 -0.052384488 0.046985056 2.644047925 0.533715587 6.919695003 -13.108604844 0.015576235 0.006130238 1.494486953
-26.051756740 93.194663525 87.927347422 2.338084382 -3.896459286 -5.023820777 -1.530421863 -0.402353565 2.636268271 0.085475015 0.033293196 1.285614963 -0.014846864 -2.122360513 8.551350679 -0.398261951 -0.436951511 1.883895548 -2.008657204 1.535463646 1.975729716 -1.099594320 3.309211302 -10.336614918 2.070463465 1.416332833 9.193947681 74.533025728 17.406838225 26.382028900 -0.124309656 23.355826767 0.186551098 -4.195191192 6.232707420 -3.008851291 0.005918093 0.035960217 -0.021127784 -5.142553093 0.888576502 19.221121618 -3.175235595 -0.751603875 8.680082303 -70.647675493 -19.981632768 30.332271073 0.098516375 -21.619398928 0.206695508 8.614068434 -2.216003916 -0.884857085 0.029002151 0.023738617 -0.014179360 -5.076369965 -0.811522063 -19.278318229 -8.796102437 -2.372899849 -17.695105445 0.020842449 0.276241613 6.809504116 6.504873476 -1.397009032 -2.956724270 0.117754278 0.361639527 -2.421427165 -2.859609806 -2.138517396 18.855795015 -0.107267174 0.190345606 2.420718149 -0.511949317 5.023966061 -16.439936337 0.004656513 0.204901525 1.953407258
-28.650933504 92.168337107 93.721246719 1.777067927 -2.681683787 -5.238516307 -1.302729269 -0.284546906 2.401918318 0.039277514 -0.009005000 1.104542299 -0.026812851 -2.199824049 8.857955767 -0.367049980 -0.434583613 1.973808088 -1.580244838 0.882038976 1.976065255 -0.949041487 2.382327838 -10.267297299 2.997395753 0.869255971 9.089184944 73.907406603 16.542114721 26.367594554 -0.399637603 22.204263186 0.008508684 -3.169004009 6.233081776 -3.101198822 0.034709598 0.001307762 -0.005225997 -5.183117940 0.877561628 19.200194498 -3.579217136 -0.703251135 8.613247097 -69.801863060 -20.813257630 30.564587505 0.071370337 -21.105023506 0.075275079 9.009679690 -2.652089259 -0.769991662 -0.031658060 0.052772859 -0.034409395 -5.097825499 -0.821411628 -19.400831706 -8.197714142 -3.096959281 -17.459359711 -0.017931127 -0.047446649 4.811073887 6.947093759 -1.224750859 -3.636817259 -0.004590861 0.052643787 -2.708803823 -0.522624506 -2.165300517 21.535080417 0.035082244 0.001378111 4.917470841 -2.490953901 3.258123957 -18.441229019 -0.015380015 0.415505087 1.093470933
-31.705313921 91.644722223 99.646073580 0.512111431 -2.224298967 -4.440925558 -0.345346237 -0.074611618 1.867217880 0.053170810 -0.025778529 0.308652295 0.222277881 -2.060180560 9.288403364 -0.202629650 -0.377994285 1.727536191 -1.802137239 0.655742495 1.516687474 -1.078113841 2.700303451 -9.448649506 3.916356804 0.606243724 8.799195923 73.049706133 15.520267012 26.247220858 -0.076424125 19.679253484 0.055718234 -2.560994664 5.934250700 -2.471024725 0.009401504 0.008077124 -0.017351156 -5.168389253 0.879431989 19.399021422 -4.933658660 -0.606888182 8.663393429 -68.694694696 -20.534479474 30.116169631 0.385009652 -20.709735944 0.032977223 9.758981131 -2.996808913 -0.945038586 0.003354111 -0.009481702 -0.005242062 -5.014843393 -0.879060638 -19.616129555 -5.870247748 -3.621260999 -19.981059548 -0.053526822 0.203457373 11.803781281 6.130345650 -2.071406912 1.692414224 0.068223213 0.317130613 -4.011150185 2.225719870 -3.676776006 21.075807328 -0.166287766 0.352192632 11.288708656 -4.763135343 3.146694582 -18.145718149 -0.185047298 1.278440525 -3.171692456
-35.172215104 91.675740480 106.098484993 -1.353717050 -1.458847003 -4.195010205 0.494922372 -0.575034833 1.533522777 0.131067525 -0.092133295 0.088155387 0.956687616 -2.450511666 8.790953900 -0.124341772 -0.342352626 1.580154278 -2.323397014 1.207653098 1.338518267 -0.992559117 3.141783115 -9.113815750 3.926182645 0.828612295 9.165539564 73.714775913 14.929148121 26.705307738 -0.284739474 16.299262092 0.007112340 -2.356129091 5.332759313 -2.593434390 -0.007898052 0.016265595 -0.006883114 -5.057916953 0.848937676 19.407010546 -5.564760572 -0.242003422 8.516819402 -68.593828816 -17.930981831 28.320584898 0.763983884 -20.015715913 -0.098714082 9.532533674 -3.531527380 -2.274111816 -0.010283052 -0.000989872 -0.012764831 -4.959950142 -0.864573797 -19.735299332 -2.319084510 -4.307245998 -21.143678782 0.020288506 0.038714985 20.802336317 4.775864932 -0.934514418 4.072672901 0.018670483 0.371588382 -1.407055811 5.676760039 -5.249592787 18.668198508 -0.089613011 -0.040695710 21.499960940 -6.109354928 4.292638812 -12.758092314 -0.154830754 0.347720480 -13.281083383
-38.480538130 92.214739323 112.507092953 -3.484450779 -1.498388890 -4.663536947 1.468577641 -0.777319335 1.746592123 0.341534720 -0.151383816 0.216025570 1.939801034 -2.713422297 8.351987752 -0.003967742 -0.293894057 1.486557680 -2.739892075 1.658856911 1.032660708 -1.055748444 3.663216963 -9.242400712 2.969874061 1.242424639 9.621289963 74.641193424 14.701261389 26.590062484 -0.501951049 14.074801886 -0.052711831 -1.839281337 5.037909728 -3.302161131 -0.011491922 -0.005254689 -0.003114977 -5.062281648 0.878039541 19.372957828 -4.958532922 -0.117830351 8.457774370 -70.255563007 -15.291380358 27.273116803 1.131463677 -18.776630998 -0.277788069 8.955230722 -3.438446941 -3.548813887 0.020426999 -0.024116668 -0.037807408 -4.977389244 -0.889194839 -19.606314709 1.579356581 -4.442232459 -18.981344703 0.005964601 -0.124269748 25.853707415 2.853202733 -0.147872815 -2.233787345 0.014980194 0.850721080 -0.026383051 8.610767652 -6.455640807 12.595214807 -0.210731264 0.204571703 36.987671510 -4.486203336 8.530444067 -1.045061971 0.023425352 -0.087409749 -15.870435062
-41.266936064 92.946231365 118.334209919 -4.975040676 -2.009923744 -5.497909563 2.119875708 -0.536743305 2.355769246 0.564232389 -0.185836760 0.540999356 2.740816303 -2.524360875 8.226748411 0.121352117 -0.202150386 1.437339535 -2.730429916 1.632384848 0.656368539 -1.157030272 3.853004564 -9.604642617 2.688324324 1.401732196 9.716372506 73.926397685 14.543865792 26.041713215 -0.310631292 13.812422110 0.033044305 -1.181386906 5.387256889 -4.228572093 -0.007428310 0.011614464 0.014961445 -5.177863545 0.902449341 19.380836615 -4.698464719 -0.413083359 8.599458443 -71.693561798 -13.962601255 27.234010152 0.976847656 -17.414954147 -0.275302246 8.159653377 -2.839928422 -3.728340511 0.008172385 -0.014026824 -0.015656614 -5.087074364 -0.865256110 -19.282678425 4.656795784 -4.196890613 -14.251055649 -0.239546284 -0.186328513 26.142555907 1.665704048 0.014047688 -6.124677117 0.023136826 0.562145810 0.699457567 9.383842329 -7.121080454 3.807374028 -0.010733783 0.191498926 53.576171084 -1.789734558 14.901498109 10.373178281 0.515853887 -0.166714055 -4.602451056
-43.369644880 93.943548203 123.825287819 -5.150352259 -3.340970032 -6.228322784 2.411156847 -0.341998697 2.894970397 0.686920271 -0.140674460 1.002941037 2.667810813 -1.995270708 8.007917503 0.086223058 -0.064566884 1.548306129 -2.354986044 1.724322213 0.545188583 -1.183006035 3.466440791 -10.336082368 2.779151954 2.159205149 10.176496451 72.522145460 15.030284832 27.120352666 -0.382960141 14.249231264 -0.037669594 -1.810481208 6.139142585 -3.843010477 0.001465968 -0.009583282 -0.008833046 -5.215449519 0.898347451 19.288434815 -4.852981754 0.075110580 8.958967003 -72.405354291 -13.428673204 28.067640262 0.359896776 -16.768656234 -0.045842188 7.638093039 -2.661527989 -2.741369022 0.016114345 -0.012426808 0.014715915 -5.100925875 -0.844947775 -19.087259292 5.724016819 -5.043236116 -7.896376463 -0.059542738 -0.231406756 22.683726636 0.504554226 2.013178964 -8.013676903 -0.019741640 0.583749216 0.538079012 8.513649757 -5.678073283 -4.870065171 -0.056370087 -0.298011185 63.792062941 -2.058199252 12.430107004 6.793749790 0.163812639 -0.093981739 -3.737913421
-44.992181659 94.870483875 129.093241692 -4.095486874 -4.847481453 -6.822453508 2.441413820 0.292146892 3.461969742 0.644892986 -0.039814904 1.204935917 1.748164823 -1.025418987 7.893118108 -0.141037271 0.000249298 1.523919420 -2.293111354 1.595454122 0.858279654 -0.812117421 3.013948641 -10.518143898 2.125382262 2.302885177 10.151429853 72.755731272 15.444024150 28.494678756 -0.463716085 14.747247510 -0.058224819 -2.737754154 5.941978718 -3.241824512 -0.000464777 -0.011084564 -0.010463756 -5.137898130 0.875557980 19.302823331 -4.356072770 0.232369572 9.083868071 -73.549275248 -12.935504740 28.730335662 0.302457047 -16.422101059 -0.058780210 7.455208675 -2.446518446 -1.466557675 0.015340488 -0.008012188 0.021791920 -5.070639384 -0.870472824 -19.132457192 5.116892071 -4.962648446 -1.093376032 0.006621507 -0.209562426 17.612334664 -0.112658488 3.340763901 -9.142320118 -0.012958021 0.592708724 0.479686073 5.698724208 -3.086468930 -11.692459113 0.009951978 -0.056905914 64.969395244 -1.401138938 9.455415660 2.546483883 0.138784143 -0.107048854 -4.190549126
-46.399837732 95.386481285 134.169411659 -2.618454001 -5.879562685 -6.949706014 2.169398990 0.291447292 3.722083591 0.639305189 0.001057254 1.328890176 0.711199838 0.090052636 7.682901140 -0.434427434 0.082198570 1.464893306 -2.641578339 1.628783063 1.107786345 -0.509268328 2.613187650 -10.419357357 1.124800485 2.603234563 9.968828560 73.619977100 15.803061709 29.511340343 -0.570174801 15.596232204 -0.130014666 -3.058054530 5.962578275 -2.842922929 0.000773638 -0.028730812 -0.012938729 -5.057525519 0.835612796 19.280953962 -4.180938687 0.562744157 9.109655766 -74.130896124 -12.447994349 28.945726834 0.629124952 -16.723827857 -0.154345939 8.011668082 -2.596331288 -0.857090917 -0.008465821 -0.002413555 0.002723852 -5.038005705 -0.872057979 -19.217849245 3.877118305 -5.197569764 5.146158263 -0.056136233 -0.137236896 12.262007595 -0.540452904 4.627672478 -9.988274863 0.014685468 0.391822639 0.727156871 2.309657732 -0.521019449 -17.041465648 -0.048627588 0.032134581 59.348301496 -1.560767497 8.075734310 -0.723455571 -0.152945005 0.189578145 -4.951586239
-47.722148895 95.352321863 139.222121239 -1.627373387 -7.141079813 -6.857108019 2.180076840 0.260381262 3.876693464 0.718074243 0.075192619 1.390887889 -0.028500285 1.106814627 7.580616963 -0.689308637 0.127498246 1.469991292 -3.406006799 2.005990627 1.110668593 -0.354089823 2.369193657 -10.404484200 0.343747533 3.146052095 9.833910703 74.047836539 16.183837945 29.945215964 -0.478834271 17.126364362 -0.181700460 -2.859741559 6.374572897 -3.156000375 0.000721542 0.008460091 0.001436682 -5.071639305 0.868042097 19.318699166 -4.693082099 1.178084463 9.225261446 -73.627749913 -12.048316750 28.467855968 0.700213186 -17.960061856 -0.175839075 8.967861077 -3.273590956 -1.211078026 -0.002212364 -0.012419743 0.019364793 -5.009168217 -0.855822457 -19.234013333 2.966629551 -4.931735180 10.666418146 0.046031345 -0.091509900 7.763817024 -1.003546738 5.611218328 -11.117471098 0.008785337 0.286517810 0.995178359 -0.096019795 2.189877179 -19.986782335 -0.011716224 -0.060217949 47.157713934 -1.757047753 8.385141689 -2.586771651 -0.199289885 0.582594787 -4.792186477
